{"type": "FeatureCollection", "features": [{"type": "Feature", "geometry": {"type": "Point", "coordinates": [-55.45752, -25.09004]}, "properties": {"nivel": "SOSPECHA", "detalle": "1 solo sensor (VIIRS_SNPP_NRT) | 2026-09-06 | brillo=301.06K | requiere confirmación", "distrito": "Dr. Raúl Peña (aprox.)", "prioridad_institucional": "MEDIA", "coords": "-25.09, -55.4575", "primera_vista": "2026-09-10", "generado": "2026-09-10T13:11:07.378118+00:00"}}, {"type": "Feature", "geometry": {"type": "Point", "coordinates": [-55.45687, -25.08573]}, "properties": {"nivel": "SOSPECHA", "detalle": "1 solo sensor (VIIRS_SNPP_NRT) | 2026-09-06 | brillo=310.01K | requiere confirmación", "distrito": "Dr. Raúl Peña (aprox.)", "prioridad_institucional": "MEDIA", "coords": "-25.0857, -55.4569", "primera_vista": "2026-09-10", "generado": "2026-09-10T13:11:07.378151+00:00"}}, {"type": "Feature", "geometry": {"type": "Point", "coordinates": [-54.57062, -26.95007]}, "properties": {"nivel": "SOSPECHA", "detalle": "1 solo sensor (VIIRS_SNPP_NRT) | 2026-09-06 | brillo=328.83K | requiere confirmación", "distrito": "Ñacunday (aprox.)", "prioridad_institucional": "CRITICA", "coords": "-26.9501, -54.5706", "primera_vista": "2026-09-10", "generado": "2026-09-10T13:11:07.378164+00:00"}}, {"type": "Feature", "geometry": {"type": "Point", "coordinates": [-54.57346, -26.94939]}, "properties": {"nivel": "SOSPECHA", "detalle": "1 solo sensor (VIIRS_SNPP_NRT) | 2026-09-06 | brillo=325.99K | requiere confirmación", "distrito": "Ñacunday (aprox.)", "prioridad_institucional": "CRITICA", "coords": "-26.9494, -54.5735", "primera_vista": "2026-09-10", "generado": "2026-09-10T13:11:07.378174+00:00"}}, {"type": "Feature", "geometry": {"type": "Point", "coordinates": [-55.78497, -26.38565]}, "properties": {"nivel": "ALTA", "detalle": "FUEGO CONFIRMADO por 2 sensores (NOAA20+SNPP) | 2026-09-06 | brillo=330.68K", "distrito": "Santa Rosa del Monday (aprox.)", "prioridad_institucional": "CRITICA", "coords": "-26.3856, -55.785", "primera_vista": "2026-09-10", "generado": "2026-09-10T13:11:07.378185+00:00"}}, {"type": "Feature", "geometry": {"type": "Point", "coordinates": [-55.61534, -26.27562]}, "properties": {"nivel": "SOSPECHA", "detalle": "1 solo sensor (VIIRS_SNPP_NRT) | 2026-09-06 | brillo=331.14K | requiere confirmación", "distrito": "Santa Rosa del Monday (aprox.)", "prioridad_institucional": "CRITICA", "coords": "-26.2756, -55.6153", "primera_vista": "2026-09-10", "generado": "2026-09-10T13:11:07.378195+00:00"}}, {"type": "Feature", "geometry": {"type": "Point", "coordinates": [-55.61877, -26.2741]}, "properties": {"nivel": "SOSPECHA", "detalle": "1 solo sensor (VIIRS_SNPP_NRT) | 2026-09-06 | brillo=330.87K | requiere confirmación", "distrito": "Santa Rosa del Monday (aprox.)", "prioridad_institucional": "CRITICA", "coords": "-26.2741, -55.6188", "primera_vista": "2026-09-10", "generado": "2026-09-10T13:11:07.378205+00:00"}}, {"type": "Feature", "geometry": {"type": "Point", "coordinates": [-55.07601, -25.57634]}, "properties": {"nivel": "ALTA", "detalle": "FUEGO CONFIRMADO por 3 sensores (MODIS+NOAA20+SNPP) | 2026-09-06 | brillo=340.92K", "distrito": "Santa Rita (aprox.)", "prioridad_institucional": "ALTA", "coords": "-25.5763, -55.076", "primera_vista": "2026-09-10", "generado": "2026-09-10T13:11:07.378216+00:00"}}, {"type": "Feature", "geometry": {"type": "Point", "coordinates": [-55.07692, -25.5724]}, "properties": {"nivel": "SOSPECHA", "detalle": "1 solo sensor (VIIRS_SNPP_NRT) | 2026-09-06 | brillo=351.56K | requiere confirmación", "distrito": "Santa Rita (aprox.)", "prioridad_institucional": "ALTA", "coords": "-25.5724, -55.0769", "primera_vista": "2026-09-10", "generado": "2026-09-10T13:11:07.378225+00:00"}}, {"type": "Feature", "geometry": {"type": "Point", "coordinates": [-55.07783, -25.56846]}, "properties": {"nivel": "SOSPECHA", "detalle": "1 solo sensor (VIIRS_SNPP_NRT) | 2026-09-06 | brillo=349.32K | requiere confirmación", "distrito": "Santa Rita (aprox.)", "prioridad_institucional": "ALTA", "coords": "-25.5685, -55.0778", "primera_vista": "2026-09-10", "generado": "2026-09-10T13:11:07.378235+00:00"}}, {"type": "Feature", "geometry": {"type": "Point", "coordinates": [-55.57578, -25.47706]}, "properties": {"nivel": "SOSPECHA", "detalle": "1 solo sensor (VIIRS_SNPP_NRT) | 2026-09-06 | brillo=342.51K | requiere confirmación", "distrito": "Dr. Raúl Peña (aprox.)", "prioridad_institucional": "MEDIA", "coords": "-25.4771, -55.5758", "primera_vista": "2026-09-10", "generado": "2026-09-10T13:11:07.378245+00:00"}}, {"type": "Feature", "geometry": {"type": "Point", "coordinates": [-54.56446, -25.04675]}, "properties": {"nivel": "ALTA", "detalle": "FUEGO CONFIRMADO por 3 sensores (MODIS+NOAA20+SNPP) | 2026-09-06 | brillo=327.64K", "distrito": "Los Cedrales (aprox.)", "prioridad_institucional": "CRITICA", "coords": "-25.0467, -54.5645", "primera_vista": "2026-09-10", "generado": "2026-09-10T13:11:07.378260+00:00"}}, {"type": "Feature", "geometry": {"type": "Point", "coordinates": [-55.81882, -25.40526]}, "properties": {"nivel": "SOSPECHA", "detalle": "1 solo sensor (VIIRS_SNPP_NRT) | 2026-09-07 | brillo=308.89K | requiere confirmación", "distrito": "Dr. Raúl Peña (aprox.)", "prioridad_institucional": "MEDIA", "coords": "-25.4053, -55.8188", "primera_vista": "2026-09-10", "generado": "2026-09-10T13:11:07.378269+00:00"}}, {"type": "Feature", "geometry": {"type": "Point", "coordinates": [-54.56733, -25.05264]}, "properties": {"nivel": "SOSPECHA", "detalle": "1 solo sensor (VIIRS_SNPP_NRT) | 2026-09-07 | brillo=299.62K | requiere confirmación", "distrito": "Los Cedrales (aprox.)", "prioridad_institucional": "CRITICA", "coords": "-25.0526, -54.5673", "primera_vista": "2026-09-10", "generado": "2026-09-10T13:11:07.378279+00:00"}}, {"type": "Feature", "geometry": {"type": "Point", "coordinates": [-54.57101, -25.04854]}, "properties": {"nivel": "SOSPECHA", "detalle": "1 solo sensor (VIIRS_SNPP_NRT) | 2026-09-07 | brillo=320.4K | requiere confirmación", "distrito": "Los Cedrales (aprox.)", "prioridad_institucional": "CRITICA", "coords": "-25.0485, -54.571", "primera_vista": "2026-09-10", "generado": "2026-09-10T13:11:07.378289+00:00"}}, {"type": "Feature", "geometry": {"type": "Point", "coordinates": [-55.47302, -25.29356]}, "properties": {"nivel": "SOSPECHA", "detalle": "1 solo sensor (VIIRS_SNPP_NRT) | 2026-09-07 | brillo=334.72K | requiere confirmación", "distrito": "Dr. Raúl Peña (aprox.)", "prioridad_institucional": "MEDIA", "coords": "-25.2936, -55.473", "primera_vista": "2026-09-10", "generado": "2026-09-10T13:11:07.378300+00:00"}}, {"type": "Feature", "geometry": {"type": "Point", "coordinates": [-55.93719, -25.19084]}, "properties": {"nivel": "SOSPECHA", "detalle": "1 solo sensor (VIIRS_SNPP_NRT) | 2026-09-07 | brillo=343.01K | requiere confirmación", "distrito": "Dr. Raúl Peña (aprox.)", "prioridad_institucional": "MEDIA", "coords": "-25.1908, -55.9372", "primera_vista": "2026-09-10", "generado": "2026-09-10T13:11:07.378310+00:00"}}, {"type": "Feature", "geometry": {"type": "Point", "coordinates": [-54.39026, -26.98383]}, "properties": {"nivel": "SOSPECHA", "detalle": "1 solo sensor (VIIRS_SNPP_NRT) | 2026-09-07 | brillo=327.63K | requiere confirmación", "distrito": "Ñacunday (aprox.)", "prioridad_institucional": "CRITICA", "coords": "-26.9838, -54.3903", "primera_vista": "2026-09-10", "generado": "2026-09-10T13:11:07.378320+00:00"}}, {"type": "Feature", "geometry": {"type": "Point", "coordinates": [-54.38316, -26.93785]}, "properties": {"nivel": "SOSPECHA", "detalle": "1 solo sensor (VIIRS_SNPP_NRT) | 2026-09-07 | brillo=328.05K | requiere confirmación", "distrito": "Ñacunday (aprox.)", "prioridad_institucional": "CRITICA", "coords": "-26.9379, -54.3832", "primera_vista": "2026-09-10", "generado": "2026-09-10T13:11:07.378329+00:00"}}, {"type": "Feature", "geometry": {"type": "Point", "coordinates": [-54.47861, -26.87945]}, "properties": {"nivel": "ALTA", "detalle": "FUEGO CONFIRMADO por 2 sensores (NOAA20+SNPP) | 2026-09-07 | brillo=327.27K", "distrito": "Ñacunday (aprox.)", "prioridad_institucional": "CRITICA", "coords": "-26.8794, -54.4786", "primera_vista": "2026-09-10", "generado": "2026-09-10T13:11:07.378339+00:00"}}, {"type": "Feature", "geometry": {"type": "Point", "coordinates": [-55.01346, -26.87364]}, "properties": {"nivel": "SOSPECHA", "detalle": "1 solo sensor (VIIRS_SNPP_NRT) | 2026-09-07 | brillo=330.14K | requiere confirmación", "distrito": "Ñacunday (aprox.)", "prioridad_institucional": "CRITICA", "coords": "-26.8736, -55.0135", "primera_vista": "2026-09-10", "generado": "2026-09-10T13:11:07.378348+00:00"}}, {"type": "Feature", "geometry": {"type": "Point", "coordinates": [-55.01369, -26.87179]}, "properties": {"nivel": "SOSPECHA", "detalle": "1 solo sensor (VIIRS_SNPP_NRT) | 2026-09-07 | brillo=329.64K | requiere confirmación", "distrito": "Ñacunday (aprox.)", "prioridad_institucional": "CRITICA", "coords": "-26.8718, -55.0137", "primera_vista": "2026-09-10", "generado": "2026-09-10T13:11:07.378358+00:00"}}, {"type": "Feature", "geometry": {"type": "Point", "coordinates": [-54.39526, -26.85246]}, "properties": {"nivel": "ALTA", "detalle": "FUEGO CONFIRMADO por 2 sensores (NOAA20+SNPP) | 2026-09-07 | brillo=331.88K", "distrito": "Ñacunday (aprox.)", "prioridad_institucional": "CRITICA", "coords": "-26.8525, -54.3953", "primera_vista": "2026-09-10", "generado": "2026-09-10T13:11:07.378367+00:00"}}, {"type": "Feature", "geometry": {"type": "Point", "coordinates": [-54.30176, -26.83414]}, "properties": {"nivel": "SOSPECHA", "detalle": "1 solo sensor (VIIRS_SNPP_NRT) | 2026-09-07 | brillo=329.29K | requiere confirmación", "distrito": "Ñacunday (aprox.)", "prioridad_institucional": "CRITICA", "coords": "-26.8341, -54.3018", "primera_vista": "2026-09-10", "generado": "2026-09-10T13:11:07.378376+00:00"}}, {"type": "Feature", "geometry": {"type": "Point", "coordinates": [-54.44678, -26.81579]}, "properties": {"nivel": "SOSPECHA", "detalle": "1 solo sensor (VIIRS_SNPP_NRT) | 2026-09-07 | brillo=342.92K | requiere confirmación", "distrito": "Ñacunday (aprox.)", "prioridad_institucional": "CRITICA", "coords": "-26.8158, -54.4468", "primera_vista": "2026-09-10", "generado": "2026-09-10T13:11:07.378387+00:00"}}, {"type": "Feature", "geometry": {"type": "Point", "coordinates": [-54.78627, -26.80558]}, "properties": {"nivel": "SOSPECHA", "detalle": "1 solo sensor (VIIRS_SNPP_NRT) | 2026-09-07 | brillo=332.07K | requiere confirmación", "distrito": "Ñacunday (aprox.)", "prioridad_institucional": "CRITICA", "coords": "-26.8056, -54.7863", "primera_vista": "2026-09-10", "generado": "2026-09-10T13:11:07.378397+00:00"}}, {"type": "Feature", "geometry": {"type": "Point", "coordinates": [-54.22469, -26.79415]}, "properties": {"nivel": "ALTA", "detalle": "FUEGO CONFIRMADO por 2 sensores (MODIS+SNPP) | 2026-09-07 | brillo=325.74K", "distrito": "Ñacunday (aprox.)", "prioridad_institucional": "CRITICA", "coords": "-26.7941, -54.2247", "primera_vista": "2026-09-10", "generado": "2026-09-10T13:11:07.378406+00:00"}}, {"type": "Feature", "geometry": {"type": "Point", "coordinates": [-54.6902, -26.78368]}, "properties": {"nivel": "SOSPECHA", "detalle": "1 solo sensor (VIIRS_SNPP_NRT) | 2026-09-07 | brillo=331.08K | requiere confirmación", "distrito": "Ñacunday (aprox.)", "prioridad_institucional": "CRITICA", "coords": "-26.7837, -54.6902", "primera_vista": "2026-09-10", "generado": "2026-09-10T13:11:07.378416+00:00"}}, {"type": "Feature", "geometry": {"type": "Point", "coordinates": [-54.69085, -26.78034]}, "properties": {"nivel": "SOSPECHA", "detalle": "1 solo sensor (VIIRS_SNPP_NRT) | 2026-09-07 | brillo=328.57K | requiere confirmación", "distrito": "Ñacunday (aprox.)", "prioridad_institucional": "CRITICA", "coords": "-26.7803, -54.6908", "primera_vista": "2026-09-10", "generado": "2026-09-10T13:11:07.378425+00:00"}}, {"type": "Feature", "geometry": {"type": "Point", "coordinates": [-54.30927, -26.77659]}, "properties": {"nivel": "SOSPECHA", "detalle": "1 solo sensor (VIIRS_SNPP_NRT) | 2026-09-07 | brillo=326.28K | requiere confirmación", "distrito": "Ñacunday (aprox.)", "prioridad_institucional": "CRITICA", "coords": "-26.7766, -54.3093", "primera_vista": "2026-09-10", "generado": "2026-09-10T13:11:07.378434+00:00"}}, {"type": "Feature", "geometry": {"type": "Point", "coordinates": [-54.59286, -26.76838]}, "properties": {"nivel": "SOSPECHA", "detalle": "1 solo sensor (VIIRS_SNPP_NRT) | 2026-09-07 | brillo=325.67K | requiere confirmación", "distrito": "Ñacunday (aprox.)", "prioridad_institucional": "CRITICA", "coords": "-26.7684, -54.5929", "primera_vista": "2026-09-10", "generado": "2026-09-10T13:11:07.378442+00:00"}}, {"type": "Feature", "geometry": {"type": "Point", "coordinates": [-55.17078, -26.74001]}, "properties": {"nivel": "SOSPECHA", "detalle": "1 solo sensor (VIIRS_SNPP_NRT) | 2026-09-07 | brillo=334.43K | requiere confirmación", "distrito": "Ñacunday (aprox.)", "prioridad_institucional": "CRITICA", "coords": "-26.74, -55.1708", "primera_vista": "2026-09-10", "generado": "2026-09-10T13:11:07.378451+00:00"}}, {"type": "Feature", "geometry": {"type": "Point", "coordinates": [-54.4603, -26.72674]}, "properties": {"nivel": "SOSPECHA", "detalle": "1 solo sensor (VIIRS_SNPP_NRT) | 2026-09-07 | brillo=328.09K | requiere confirmación", "distrito": "Ñacunday (aprox.)", "prioridad_institucional": "CRITICA", "coords": "-26.7267, -54.4603", "primera_vista": "2026-09-10", "generado": "2026-09-10T13:11:07.378459+00:00"}}, {"type": "Feature", "geometry": {"type": "Point", "coordinates": [-54.708, -26.71291]}, "properties": {"nivel": "SOSPECHA", "detalle": "1 solo sensor (VIIRS_SNPP_NRT) | 2026-09-07 | brillo=330.94K | requiere confirmación", "distrito": "Ñacunday (aprox.)", "prioridad_institucional": "CRITICA", "coords": "-26.7129, -54.708", "primera_vista": "2026-09-10", "generado": "2026-09-10T13:11:07.378468+00:00"}}, {"type": "Feature", "geometry": {"type": "Point", "coordinates": [-55.89553, -26.66783]}, "properties": {"nivel": "SOSPECHA", "detalle": "1 solo sensor (VIIRS_SNPP_NRT) | 2026-09-07 | brillo=335.44K | requiere confirmación", "distrito": "Santa Rosa del Monday (aprox.)", "prioridad_institucional": "CRITICA", "coords": "-26.6678, -55.8955", "primera_vista": "2026-09-10", "generado": "2026-09-10T13:11:07.378477+00:00"}}, {"type": "Feature", "geometry": {"type": "Point", "coordinates": [-55.83425, -26.65181]}, "properties": {"nivel": "SOSPECHA", "detalle": "1 solo sensor (VIIRS_SNPP_NRT) | 2026-09-07 | brillo=330.2K | requiere confirmación", "distrito": "Santa Rosa del Monday (aprox.)", "prioridad_institucional": "CRITICA", "coords": "-26.6518, -55.8342", "primera_vista": "2026-09-10", "generado": "2026-09-10T13:11:07.378486+00:00"}}, {"type": "Feature", "geometry": {"type": "Point", "coordinates": [-55.80243, -26.6505]}, "properties": {"nivel": "SOSPECHA", "detalle": "1 solo sensor (VIIRS_SNPP_NRT) | 2026-09-07 | brillo=339.72K | requiere confirmación", "distrito": "Ñacunday (aprox.)", "prioridad_institucional": "CRITICA", "coords": "-26.6505, -55.8024", "primera_vista": "2026-09-10", "generado": "2026-09-10T13:11:07.378496+00:00"}}, {"type": "Feature", "geometry": {"type": "Point", "coordinates": [-55.90314, -26.64832]}, "properties": {"nivel": "SOSPECHA", "detalle": "1 solo sensor (VIIRS_SNPP_NRT) | 2026-09-07 | brillo=336.75K | requiere confirmación", "distrito": "Santa Rosa del Monday (aprox.)", "prioridad_institucional": "CRITICA", "coords": "-26.6483, -55.9031", "primera_vista": "2026-09-10", "generado": "2026-09-10T13:11:07.378529+00:00"}}, {"type": "Feature", "geometry": {"type": "Point", "coordinates": [-55.80304, -26.64715]}, "properties": {"nivel": "SOSPECHA", "detalle": "1 solo sensor (VIIRS_SNPP_NRT) | 2026-09-07 | brillo=336.05K | requiere confirmación", "distrito": "Santa Rosa del Monday (aprox.)", "prioridad_institucional": "CRITICA", "coords": "-26.6471, -55.803", "primera_vista": "2026-09-10", "generado": "2026-09-10T13:11:07.378539+00:00"}}, {"type": "Feature", "geometry": {"type": "Point", "coordinates": [-55.80366, -26.6438]}, "properties": {"nivel": "SOSPECHA", "detalle": "1 solo sensor (VIIRS_SNPP_NRT) | 2026-09-07 | brillo=326.75K | requiere confirmación", "distrito": "Santa Rosa del Monday (aprox.)", "prioridad_institucional": "CRITICA", "coords": "-26.6438, -55.8037", "primera_vista": "2026-09-10", "generado": "2026-09-10T13:11:07.378550+00:00"}}, {"type": "Feature", "geometry": {"type": "Point", "coordinates": [-55.70729, -26.60188]}, "properties": {"nivel": "SOSPECHA", "detalle": "1 solo sensor (VIIRS_SNPP_NRT) | 2026-09-07 | brillo=336.79K | requiere confirmación", "distrito": "Ñacunday (aprox.)", "prioridad_institucional": "CRITICA", "coords": "-26.6019, -55.7073", "primera_vista": "2026-09-10", "generado": "2026-09-10T13:11:07.378559+00:00"}}, {"type": "Feature", "geometry": {"type": "Point", "coordinates": [-55.65994, -26.59821]}, "properties": {"nivel": "SOSPECHA", "detalle": "1 solo sensor (VIIRS_SNPP_NRT) | 2026-09-07 | brillo=343.03K | requiere confirmación", "distrito": "Ñacunday (aprox.)", "prioridad_institucional": "CRITICA", "coords": "-26.5982, -55.6599", "primera_vista": "2026-09-10", "generado": "2026-09-10T13:11:07.378568+00:00"}}, {"type": "Feature", "geometry": {"type": "Point", "coordinates": [-55.77909, -26.5817]}, "properties": {"nivel": "SOSPECHA", "detalle": "1 solo sensor (VIIRS_SNPP_NRT) | 2026-09-07 | brillo=336.57K | requiere confirmación", "distrito": "Santa Rosa del Monday (aprox.)", "prioridad_institucional": "CRITICA", "coords": "-26.5817, -55.7791", "primera_vista": "2026-09-10", "generado": "2026-09-10T13:11:07.378577+00:00"}}, {"type": "Feature", "geometry": {"type": "Point", "coordinates": [-55.65979, -26.57758]}, "properties": {"nivel": "SOSPECHA", "detalle": "1 solo sensor (VIIRS_SNPP_NRT) | 2026-09-07 | brillo=325.59K | requiere confirmación", "distrito": "Ñacunday (aprox.)", "prioridad_institucional": "CRITICA", "coords": "-26.5776, -55.6598", "primera_vista": "2026-09-10", "generado": "2026-09-10T13:11:07.378588+00:00"}}, {"type": "Feature", "geometry": {"type": "Point", "coordinates": [-54.82357, -26.57099]}, "properties": {"nivel": "SOSPECHA", "detalle": "1 solo sensor (VIIRS_SNPP_NRT) | 2026-09-07 | brillo=325.38K | requiere confirmación", "distrito": "Ñacunday (aprox.)", "prioridad_institucional": "CRITICA", "coords": "-26.571, -54.8236", "primera_vista": "2026-09-10", "generado": "2026-09-10T13:11:07.378597+00:00"}}, {"type": "Feature", "geometry": {"type": "Point", "coordinates": [-55.87051, -26.5628]}, "properties": {"nivel": "SOSPECHA", "detalle": "1 solo sensor (VIIRS_SNPP_NRT) | 2026-09-07 | brillo=336.49K | requiere confirmación", "distrito": "Santa Rosa del Monday (aprox.)", "prioridad_institucional": "CRITICA", "coords": "-26.5628, -55.8705", "primera_vista": "2026-09-10", "generado": "2026-09-10T13:11:07.378606+00:00"}}, {"type": "Feature", "geometry": {"type": "Point", "coordinates": [-55.88346, -26.55785]}, "properties": {"nivel": "SOSPECHA", "detalle": "1 solo sensor (VIIRS_SNPP_NRT) | 2026-09-07 | brillo=340.35K | requiere confirmación", "distrito": "Santa Rosa del Monday (aprox.)", "prioridad_institucional": "CRITICA", "coords": "-26.5578, -55.8835", "primera_vista": "2026-09-10", "generado": "2026-09-10T13:11:07.378616+00:00"}}, {"type": "Feature", "geometry": {"type": "Point", "coordinates": [-55.61625, -26.55387]}, "properties": {"nivel": "SOSPECHA", "detalle": "1 solo sensor (VIIRS_SNPP_NRT) | 2026-09-07 | brillo=334.73K | requiere confirmación", "distrito": "Ñacunday (aprox.)", "prioridad_institucional": "CRITICA", "coords": "-26.5539, -55.6163", "primera_vista": "2026-09-10", "generado": "2026-09-10T13:11:07.378625+00:00"}}, {"type": "Feature", "geometry": {"type": "Point", "coordinates": [-55.86909, -26.54883]}, "properties": {"nivel": "SOSPECHA", "detalle": "1 solo sensor (VIIRS_SNPP_NRT) | 2026-09-07 | brillo=342.57K | requiere confirmación", "distrito": "Santa Rosa del Monday (aprox.)", "prioridad_institucional": "CRITICA", "coords": "-26.5488, -55.8691", "primera_vista": "2026-09-10", "generado": "2026-09-10T13:11:07.378634+00:00"}}, {"type": "Feature", "geometry": {"type": "Point", "coordinates": [-55.79706, -26.54837]}, "properties": {"nivel": "SOSPECHA", "detalle": "1 solo sensor (VIIRS_SNPP_NRT) | 2026-09-07 | brillo=329.25K | requiere confirmación", "distrito": "Santa Rosa del Monday (aprox.)", "prioridad_institucional": "CRITICA", "coords": "-26.5484, -55.7971", "primera_vista": "2026-09-10", "generado": "2026-09-10T13:11:07.378642+00:00"}}, {"type": "Feature", "geometry": {"type": "Point", "coordinates": [-55.79317, -26.54779]}, "properties": {"nivel": "SOSPECHA", "detalle": "1 solo sensor (VIIRS_SNPP_NRT) | 2026-09-07 | brillo=332.66K | requiere confirmación", "distrito": "Santa Rosa del Monday (aprox.)", "prioridad_institucional": "CRITICA", "coords": "-26.5478, -55.7932", "primera_vista": "2026-09-10", "generado": "2026-09-10T13:11:07.378651+00:00"}}, {"type": "Feature", "geometry": {"type": "Point", "coordinates": [-54.85719, -26.54186]}, "properties": {"nivel": "SOSPECHA", "detalle": "1 solo sensor (VIIRS_SNPP_NRT) | 2026-09-07 | brillo=328.7K | requiere confirmación", "distrito": "Ñacunday (aprox.)", "prioridad_institucional": "CRITICA", "coords": "-26.5419, -54.8572", "primera_vista": "2026-09-10", "generado": "2026-09-10T13:11:07.378660+00:00"}}, {"type": "Feature", "geometry": {"type": "Point", "coordinates": [-55.47782, -26.5261]}, "properties": {"nivel": "SOSPECHA", "detalle": "1 solo sensor (VIIRS_SNPP_NRT) | 2026-09-07 | brillo=329.42K | requiere confirmación", "distrito": "Ñacunday (aprox.)", "prioridad_institucional": "CRITICA", "coords": "-26.5261, -55.4778", "primera_vista": "2026-09-10", "generado": "2026-09-10T13:11:07.378668+00:00"}}, {"type": "Feature", "geometry": {"type": "Point", "coordinates": [-55.62585, -26.4368]}, "properties": {"nivel": "SOSPECHA", "detalle": "1 solo sensor (VIIRS_SNPP_NRT) | 2026-09-07 | brillo=328.27K | requiere confirmación", "distrito": "Santa Rosa del Monday (aprox.)", "prioridad_institucional": "CRITICA", "coords": "-26.4368, -55.6258", "primera_vista": "2026-09-10", "generado": "2026-09-10T13:11:07.378678+00:00"}}, {"type": "Feature", "geometry": {"type": "Point", "coordinates": [-55.65503, -26.40892]}, "properties": {"nivel": "SOSPECHA", "detalle": "1 solo sensor (VIIRS_SNPP_NRT) | 2026-09-07 | brillo=340.5K | requiere confirmación", "distrito": "Santa Rosa del Monday (aprox.)", "prioridad_institucional": "CRITICA", "coords": "-26.4089, -55.655", "primera_vista": "2026-09-10", "generado": "2026-09-10T13:11:07.378686+00:00"}}, {"type": "Feature", "geometry": {"type": "Point", "coordinates": [-55.8572, -26.37398]}, "properties": {"nivel": "SOSPECHA", "detalle": "1 solo sensor (VIIRS_SNPP_NRT) | 2026-09-07 | brillo=334.27K | requiere confirmación", "distrito": "Santa Rosa del Monday (aprox.)", "prioridad_institucional": "CRITICA", "coords": "-26.374, -55.8572", "primera_vista": "2026-09-10", "generado": "2026-09-10T13:11:07.378695+00:00"}}, {"type": "Feature", "geometry": {"type": "Point", "coordinates": [-55.75753, -26.37283]}, "properties": {"nivel": "SOSPECHA", "detalle": "1 solo sensor (VIIRS_SNPP_NRT) | 2026-09-07 | brillo=330.37K | requiere confirmación", "distrito": "Santa Rosa del Monday (aprox.)", "prioridad_institucional": "CRITICA", "coords": "-26.3728, -55.7575", "primera_vista": "2026-09-10", "generado": "2026-09-10T13:11:07.378704+00:00"}}, {"type": "Feature", "geometry": {"type": "Point", "coordinates": [-55.55473, -26.36974]}, "properties": {"nivel": "SOSPECHA", "detalle": "1 solo sensor (VIIRS_SNPP_NRT) | 2026-09-07 | brillo=336.83K | requiere confirmación", "distrito": "Santa Rosa del Monday (aprox.)", "prioridad_institucional": "CRITICA", "coords": "-26.3697, -55.5547", "primera_vista": "2026-09-10", "generado": "2026-09-10T13:11:07.378714+00:00"}}, {"type": "Feature", "geometry": {"type": "Point", "coordinates": [-55.55536, -26.3664]}, "properties": {"nivel": "ALTA", "detalle": "FUEGO CONFIRMADO por 2 sensores (NOAA20+SNPP) | 2026-09-07 | brillo=330.0K", "distrito": "Santa Rosa del Monday (aprox.)", "prioridad_institucional": "CRITICA", "coords": "-26.3664, -55.5554", "primera_vista": "2026-09-10", "generado": "2026-09-10T13:11:07.378723+00:00"}}, {"type": "Feature", "geometry": {"type": "Point", "coordinates": [-55.55598, -26.36306]}, "properties": {"nivel": "SOSPECHA", "detalle": "1 solo sensor (VIIRS_SNPP_NRT) | 2026-09-07 | brillo=338.62K | requiere confirmación", "distrito": "Santa Rosa del Monday (aprox.)", "prioridad_institucional": "CRITICA", "coords": "-26.3631, -55.556", "primera_vista": "2026-09-10", "generado": "2026-09-10T13:11:07.378733+00:00"}}, {"type": "Feature", "geometry": {"type": "Point", "coordinates": [-54.18237, -26.34727]}, "properties": {"nivel": "SOSPECHA", "detalle": "1 solo sensor (VIIRS_SNPP_NRT) | 2026-09-07 | brillo=325.83K | requiere confirmación", "distrito": "Ñacunday (aprox.)", "prioridad_institucional": "CRITICA", "coords": "-26.3473, -54.1824", "primera_vista": "2026-09-10", "generado": "2026-09-10T13:11:07.378743+00:00"}}, {"type": "Feature", "geometry": {"type": "Point", "coordinates": [-54.06062, -26.34492]}, "properties": {"nivel": "SOSPECHA", "detalle": "1 solo sensor (VIIRS_SNPP_NRT) | 2026-09-07 | brillo=342.89K | requiere confirmación", "distrito": "Ñacunday (aprox.)", "prioridad_institucional": "CRITICA", "coords": "-26.3449, -54.0606", "primera_vista": "2026-09-10", "generado": "2026-09-10T13:11:07.378752+00:00"}}, {"type": "Feature", "geometry": {"type": "Point", "coordinates": [-55.83056, -26.34425]}, "properties": {"nivel": "SOSPECHA", "detalle": "1 solo sensor (VIIRS_SNPP_NRT) | 2026-09-07 | brillo=326.44K | requiere confirmación", "distrito": "Santa Rosa del Monday (aprox.)", "prioridad_institucional": "CRITICA", "coords": "-26.3442, -55.8306", "primera_vista": "2026-09-10", "generado": "2026-09-10T13:11:07.378760+00:00"}}, {"type": "Feature", "geometry": {"type": "Point", "coordinates": [-55.77292, -26.33216]}, "properties": {"nivel": "SOSPECHA", "detalle": "1 solo sensor (VIIRS_SNPP_NRT) | 2026-09-07 | brillo=331.89K | requiere confirmación", "distrito": "Santa Rosa del Monday (aprox.)", "prioridad_institucional": "CRITICA", "coords": "-26.3322, -55.7729", "primera_vista": "2026-09-10", "generado": "2026-09-10T13:11:07.378770+00:00"}}, {"type": "Feature", "geometry": {"type": "Point", "coordinates": [-55.77742, -26.3294]}, "properties": {"nivel": "SOSPECHA", "detalle": "1 solo sensor (VIIRS_SNPP_NRT) | 2026-09-07 | brillo=327.42K | requiere confirmación", "distrito": "Santa Rosa del Monday (aprox.)", "prioridad_institucional": "CRITICA", "coords": "-26.3294, -55.7774", "primera_vista": "2026-09-10", "generado": "2026-09-10T13:11:07.378780+00:00"}}, {"type": "Feature", "geometry": {"type": "Point", "coordinates": [-55.77354, -26.32882]}, "properties": {"nivel": "SOSPECHA", "detalle": "1 solo sensor (VIIRS_SNPP_NRT) | 2026-09-07 | brillo=326.06K | requiere confirmación", "distrito": "Santa Rosa del Monday (aprox.)", "prioridad_institucional": "CRITICA", "coords": "-26.3288, -55.7735", "primera_vista": "2026-09-10", "generado": "2026-09-10T13:11:07.378788+00:00"}}, {"type": "Feature", "geometry": {"type": "Point", "coordinates": [-55.6151, -26.32395]}, "properties": {"nivel": "SOSPECHA", "detalle": "1 solo sensor (VIIRS_SNPP_NRT) | 2026-09-07 | brillo=330.48K | requiere confirmación", "distrito": "Santa Rosa del Monday (aprox.)", "prioridad_institucional": "CRITICA", "coords": "-26.3239, -55.6151", "primera_vista": "2026-09-10", "generado": "2026-09-10T13:11:07.378796+00:00"}}, {"type": "Feature", "geometry": {"type": "Point", "coordinates": [-55.89442, -26.32288]}, "properties": {"nivel": "SOSPECHA", "detalle": "1 solo sensor (VIIRS_SNPP_NRT) | 2026-09-07 | brillo=333.78K | requiere confirmación", "distrito": "Santa Rosa del Monday (aprox.)", "prioridad_institucional": "CRITICA", "coords": "-26.3229, -55.8944", "primera_vista": "2026-09-10", "generado": "2026-09-10T13:11:07.378805+00:00"}}, {"type": "Feature", "geometry": {"type": "Point", "coordinates": [-55.61572, -26.3206]}, "properties": {"nivel": "SOSPECHA", "detalle": "1 solo sensor (VIIRS_SNPP_NRT) | 2026-09-07 | brillo=331.27K | requiere confirmación", "distrito": "Santa Rosa del Monday (aprox.)", "prioridad_institucional": "CRITICA", "coords": "-26.3206, -55.6157", "primera_vista": "2026-09-10", "generado": "2026-09-10T13:11:07.378813+00:00"}}, {"type": "Feature", "geometry": {"type": "Point", "coordinates": [-55.85408, -26.3031]}, "properties": {"nivel": "SOSPECHA", "detalle": "1 solo sensor (VIIRS_SNPP_NRT) | 2026-09-07 | brillo=333.26K | requiere confirmación", "distrito": "Santa Rosa del Monday (aprox.)", "prioridad_institucional": "CRITICA", "coords": "-26.3031, -55.8541", "primera_vista": "2026-09-10", "generado": "2026-09-10T13:11:07.378823+00:00"}}, {"type": "Feature", "geometry": {"type": "Point", "coordinates": [-55.90894, -26.28723]}, "properties": {"nivel": "SOSPECHA", "detalle": "1 solo sensor (VIIRS_SNPP_NRT) | 2026-09-07 | brillo=334.14K | requiere confirmación", "distrito": "Santa Rosa del Monday (aprox.)", "prioridad_institucional": "CRITICA", "coords": "-26.2872, -55.9089", "primera_vista": "2026-09-10", "generado": "2026-09-10T13:11:07.378831+00:00"}}, {"type": "Feature", "geometry": {"type": "Point", "coordinates": [-55.9411, -26.2645]}, "properties": {"nivel": "SOSPECHA", "detalle": "1 solo sensor (VIIRS_SNPP_NRT) | 2026-09-07 | brillo=329.07K | requiere confirmación", "distrito": "Santa Rosa del Monday (aprox.)", "prioridad_institucional": "CRITICA", "coords": "-26.2645, -55.9411", "primera_vista": "2026-09-10", "generado": "2026-09-10T13:11:07.378840+00:00"}}, {"type": "Feature", "geometry": {"type": "Point", "coordinates": [-55.90531, -26.22019]}, "properties": {"nivel": "SOSPECHA", "detalle": "1 solo sensor (VIIRS_SNPP_NRT) | 2026-09-07 | brillo=327.4K | requiere confirmación", "distrito": "Santa Rosa del Monday (aprox.)", "prioridad_institucional": "CRITICA", "coords": "-26.2202, -55.9053", "primera_vista": "2026-09-10", "generado": "2026-09-10T13:11:07.378848+00:00"}}, {"type": "Feature", "geometry": {"type": "Point", "coordinates": [-55.15581, -26.20723]}, "properties": {"nivel": "ALTA", "detalle": "FUEGO CONFIRMADO por 2 sensores (NOAA20+SNPP) | 2026-09-07 | brillo=332.09K", "distrito": "Ñacunday (aprox.)", "prioridad_institucional": "CRITICA", "coords": "-26.2072, -55.1558", "primera_vista": "2026-09-10", "generado": "2026-09-10T13:11:07.378857+00:00"}}, {"type": "Feature", "geometry": {"type": "Point", "coordinates": [-55.80889, -26.20231]}, "properties": {"nivel": "SOSPECHA", "detalle": "1 solo sensor (VIIRS_SNPP_NRT) | 2026-09-07 | brillo=335.05K | requiere confirmación", "distrito": "Santa Rosa del Monday (aprox.)", "prioridad_institucional": "CRITICA", "coords": "-26.2023, -55.8089", "primera_vista": "2026-09-10", "generado": "2026-09-10T13:11:07.378867+00:00"}}, {"type": "Feature", "geometry": {"type": "Point", "coordinates": [-55.9006, -26.2023]}, "properties": {"nivel": "SOSPECHA", "detalle": "1 solo sensor (VIIRS_SNPP_NRT) | 2026-09-07 | brillo=336.96K | requiere confirmación", "distrito": "Santa Rosa del Monday (aprox.)", "prioridad_institucional": "CRITICA", "coords": "-26.2023, -55.9006", "primera_vista": "2026-09-10", "generado": "2026-09-10T13:11:07.378875+00:00"}}, {"type": "Feature", "geometry": {"type": "Point", "coordinates": [-54.80504, -26.18699]}, "properties": {"nivel": "SOSPECHA", "detalle": "1 solo sensor (VIIRS_SNPP_NRT) | 2026-09-07 | brillo=338.78K | requiere confirmación", "distrito": "Ñacunday (aprox.)", "prioridad_institucional": "CRITICA", "coords": "-26.187, -54.805", "primera_vista": "2026-09-10", "generado": "2026-09-10T13:11:07.378884+00:00"}}, {"type": "Feature", "geometry": {"type": "Point", "coordinates": [-55.62941, -26.16152]}, "properties": {"nivel": "SOSPECHA", "detalle": "1 solo sensor (VIIRS_SNPP_NRT) | 2026-09-07 | brillo=332.43K | requiere confirmación", "distrito": "Santa Rosa del Monday (aprox.)", "prioridad_institucional": "CRITICA", "coords": "-26.1615, -55.6294", "primera_vista": "2026-09-10", "generado": "2026-09-10T13:11:07.378893+00:00"}}, {"type": "Feature", "geometry": {"type": "Point", "coordinates": [-55.85459, -26.10093]}, "properties": {"nivel": "SOSPECHA", "detalle": "1 solo sensor (VIIRS_SNPP_NRT) | 2026-09-07 | brillo=345.28K | requiere confirmación", "distrito": "Naranjal (aprox.)", "prioridad_institucional": "ALTA", "coords": "-26.1009, -55.8546", "primera_vista": "2026-09-10", "generado": "2026-09-10T13:11:07.378901+00:00"}}, {"type": "Feature", "geometry": {"type": "Point", "coordinates": [-55.52155, -26.05402]}, "properties": {"nivel": "SOSPECHA", "detalle": "1 solo sensor (VIIRS_SNPP_NRT) | 2026-09-07 | brillo=329.58K | requiere confirmación", "distrito": "Santa Rosa del Monday (aprox.)", "prioridad_institucional": "CRITICA", "coords": "-26.054, -55.5215", "primera_vista": "2026-09-10", "generado": "2026-09-10T13:11:07.378910+00:00"}}, {"type": "Feature", "geometry": {"type": "Point", "coordinates": [-55.91314, -25.91083]}, "properties": {"nivel": "SOSPECHA", "detalle": "1 solo sensor (VIIRS_SNPP_NRT) | 2026-09-07 | brillo=330.18K | requiere confirmación", "distrito": "San Cristóbal (aprox.)", "prioridad_institucional": "CRITICA", "coords": "-25.9108, -55.9131", "primera_vista": "2026-09-10", "generado": "2026-09-10T13:11:07.378919+00:00"}}, {"type": "Feature", "geometry": {"type": "Point", "coordinates": [-55.76924, -25.72299]}, "properties": {"nivel": "SOSPECHA", "detalle": "1 solo sensor (VIIRS_SNPP_NRT) | 2026-09-07 | brillo=332.97K | requiere confirmación", "distrito": "San Cristóbal (aprox.)", "prioridad_institucional": "CRITICA", "coords": "-25.723, -55.7692", "primera_vista": "2026-09-10", "generado": "2026-09-10T13:11:07.378929+00:00"}}, {"type": "Feature", "geometry": {"type": "Point", "coordinates": [-55.7338, -25.70048]}, "properties": {"nivel": "SOSPECHA", "detalle": "1 solo sensor (VIIRS_SNPP_NRT) | 2026-09-07 | brillo=328.39K | requiere confirmación", "distrito": "San Cristóbal (aprox.)", "prioridad_institucional": "CRITICA", "coords": "-25.7005, -55.7338", "primera_vista": "2026-09-10", "generado": "2026-09-10T13:11:07.378940+00:00"}}, {"type": "Feature", "geometry": {"type": "Point", "coordinates": [-55.06673, -25.56161]}, "properties": {"nivel": "SOSPECHA", "detalle": "1 solo sensor (VIIRS_SNPP_NRT) | 2026-09-07 | brillo=334.23K | requiere confirmación", "distrito": "Santa Rita (aprox.)", "prioridad_institucional": "ALTA", "coords": "-25.5616, -55.0667", "primera_vista": "2026-09-10", "generado": "2026-09-10T13:11:07.378949+00:00"}}, {"type": "Feature", "geometry": {"type": "Point", "coordinates": [-55.94917, -25.47046]}, "properties": {"nivel": "SOSPECHA", "detalle": "1 solo sensor (VIIRS_SNPP_NRT) | 2026-09-07 | brillo=338.88K | requiere confirmación", "distrito": "Dr. Raúl Peña (aprox.)", "prioridad_institucional": "MEDIA", "coords": "-25.4705, -55.9492", "primera_vista": "2026-09-10", "generado": "2026-09-10T13:11:07.378958+00:00"}}, {"type": "Feature", "geometry": {"type": "Point", "coordinates": [-55.2737, -25.38782]}, "properties": {"nivel": "SOSPECHA", "detalle": "1 solo sensor (VIIRS_SNPP_NRT) | 2026-09-07 | brillo=336.14K | requiere confirmación", "distrito": "Dr. Raúl Peña (aprox.)", "prioridad_institucional": "MEDIA", "coords": "-25.3878, -55.2737", "primera_vista": "2026-09-10", "generado": "2026-09-10T13:11:07.378966+00:00"}}, {"type": "Feature", "geometry": {"type": "Point", "coordinates": [-55.27433, -25.38448]}, "properties": {"nivel": "SOSPECHA", "detalle": "1 solo sensor (VIIRS_SNPP_NRT) | 2026-09-07 | brillo=346.62K | requiere confirmación", "distrito": "Dr. Raúl Peña (aprox.)", "prioridad_institucional": "MEDIA", "coords": "-25.3845, -55.2743", "primera_vista": "2026-09-10", "generado": "2026-09-10T13:11:07.378975+00:00"}}, {"type": "Feature", "geometry": {"type": "Point", "coordinates": [-55.27864, -25.34053]}, "properties": {"nivel": "SOSPECHA", "detalle": "1 solo sensor (VIIRS_SNPP_NRT) | 2026-09-07 | brillo=332.48K | requiere confirmación", "distrito": "Dr. Raúl Peña (aprox.)", "prioridad_institucional": "MEDIA", "coords": "-25.3405, -55.2786", "primera_vista": "2026-09-10", "generado": "2026-09-10T13:11:07.378983+00:00"}}, {"type": "Feature", "geometry": {"type": "Point", "coordinates": [-55.5511, -26.35714]}, "properties": {"nivel": "SOSPECHA", "detalle": "1 solo sensor (VIIRS_SNPP_NRT) | 2026-09-08 | brillo=321.5K | requiere confirmación", "distrito": "Santa Rosa del Monday (aprox.)", "prioridad_institucional": "CRITICA", "coords": "-26.3571, -55.5511", "primera_vista": "2026-09-10", "generado": "2026-09-10T13:11:07.378992+00:00"}}, {"type": "Feature", "geometry": {"type": "Point", "coordinates": [-55.55547, -26.35636]}, "properties": {"nivel": "SOSPECHA", "detalle": "1 solo sensor (VIIRS_SNPP_NRT) | 2026-09-08 | brillo=317.26K | requiere confirmación", "distrito": "Santa Rosa del Monday (aprox.)", "prioridad_institucional": "CRITICA", "coords": "-26.3564, -55.5555", "primera_vista": "2026-09-10", "generado": "2026-09-10T13:11:07.379001+00:00"}}, {"type": "Feature", "geometry": {"type": "Point", "coordinates": [-54.60344, -26.96192]}, "properties": {"nivel": "SOSPECHA", "detalle": "1 solo sensor (VIIRS_SNPP_NRT) | 2026-09-08 | brillo=325.52K | requiere confirmación", "distrito": "Ñacunday (aprox.)", "prioridad_institucional": "CRITICA", "coords": "-26.9619, -54.6034", "primera_vista": "2026-09-10", "generado": "2026-09-10T13:11:07.379013+00:00"}}, {"type": "Feature", "geometry": {"type": "Point", "coordinates": [-54.31541, -26.95685]}, "properties": {"nivel": "SOSPECHA", "detalle": "1 solo sensor (VIIRS_SNPP_NRT) | 2026-09-08 | brillo=341.44K | requiere confirmación", "distrito": "Ñacunday (aprox.)", "prioridad_institucional": "CRITICA", "coords": "-26.9568, -54.3154", "primera_vista": "2026-09-10", "generado": "2026-09-10T13:11:07.379021+00:00"}}, {"type": "Feature", "geometry": {"type": "Point", "coordinates": [-55.26708, -26.94647]}, "properties": {"nivel": "ALTA", "detalle": "FUEGO CONFIRMADO por 2 sensores (NOAA20+SNPP) | 2026-09-08 | brillo=346.08K", "distrito": "Ñacunday (aprox.)", "prioridad_institucional": "CRITICA", "coords": "-26.9465, -55.2671", "primera_vista": "2026-09-10", "generado": "2026-09-10T13:11:07.379036+00:00"}}, {"type": "Feature", "geometry": {"type": "Point", "coordinates": [-54.76491, -26.94454]}, "properties": {"nivel": "SOSPECHA", "detalle": "1 solo sensor (VIIRS_SNPP_NRT) | 2026-09-08 | brillo=331.69K | requiere confirmación", "distrito": "Ñacunday (aprox.)", "prioridad_institucional": "CRITICA", "coords": "-26.9445, -54.7649", "primera_vista": "2026-09-10", "generado": "2026-09-10T13:11:07.379044+00:00"}}, {"type": "Feature", "geometry": {"type": "Point", "coordinates": [-54.8799, -26.88468]}, "properties": {"nivel": "SOSPECHA", "detalle": "1 solo sensor (VIIRS_SNPP_NRT) | 2026-09-08 | brillo=332.92K | requiere confirmación", "distrito": "Ñacunday (aprox.)", "prioridad_institucional": "CRITICA", "coords": "-26.8847, -54.8799", "primera_vista": "2026-09-10", "generado": "2026-09-10T13:11:07.379053+00:00"}}, {"type": "Feature", "geometry": {"type": "Point", "coordinates": [-54.88045, -26.88085]}, "properties": {"nivel": "SOSPECHA", "detalle": "1 solo sensor (VIIRS_SNPP_NRT) | 2026-09-08 | brillo=342.93K | requiere confirmación", "distrito": "Ñacunday (aprox.)", "prioridad_institucional": "CRITICA", "coords": "-26.8808, -54.8805", "primera_vista": "2026-09-10", "generado": "2026-09-10T13:11:07.379062+00:00"}}, {"type": "Feature", "geometry": {"type": "Point", "coordinates": [-54.25224, -26.83062]}, "properties": {"nivel": "ALTA", "detalle": "FUEGO CONFIRMADO por 2 sensores (NOAA20+SNPP) | 2026-09-08 | brillo=331.49K", "distrito": "Ñacunday (aprox.)", "prioridad_institucional": "CRITICA", "coords": "-26.8306, -54.2522", "primera_vista": "2026-09-10", "generado": "2026-09-10T13:11:07.379070+00:00"}}, {"type": "Feature", "geometry": {"type": "Point", "coordinates": [-54.40496, -26.81168]}, "properties": {"nivel": "ALTA", "detalle": "FUEGO CONFIRMADO por 2 sensores (NOAA20+SNPP) | 2026-09-08 | brillo=338.33K", "distrito": "Ñacunday (aprox.)", "prioridad_institucional": "CRITICA", "coords": "-26.8117, -54.405", "primera_vista": "2026-09-10", "generado": "2026-09-10T13:11:07.379079+00:00"}}, {"type": "Feature", "geometry": {"type": "Point", "coordinates": [-54.40768, -26.81114]}, "properties": {"nivel": "SOSPECHA", "detalle": "1 solo sensor (VIIRS_SNPP_NRT) | 2026-09-08 | brillo=334.66K | requiere confirmación", "distrito": "Ñacunday (aprox.)", "prioridad_institucional": "CRITICA", "coords": "-26.8111, -54.4077", "primera_vista": "2026-09-10", "generado": "2026-09-10T13:11:07.379087+00:00"}}, {"type": "Feature", "geometry": {"type": "Point", "coordinates": [-54.04326, -26.74901]}, "properties": {"nivel": "ALTA", "detalle": "FUEGO CONFIRMADO por 2 sensores (NOAA20+SNPP) | 2026-09-08 | brillo=329.88K", "distrito": "Ñacunday (aprox.)", "prioridad_institucional": "CRITICA", "coords": "-26.749, -54.0433", "primera_vista": "2026-09-10", "generado": "2026-09-10T13:11:07.379096+00:00"}}, {"type": "Feature", "geometry": {"type": "Point", "coordinates": [-54.02186, -26.42811]}, "properties": {"nivel": "ALTA", "detalle": "FUEGO CONFIRMADO por 2 sensores (NOAA20+SNPP) | 2026-09-08 | brillo=330.19K", "distrito": "Ñacunday (aprox.)", "prioridad_institucional": "CRITICA", "coords": "-26.4281, -54.0219", "primera_vista": "2026-09-10", "generado": "2026-09-10T13:11:07.379105+00:00"}}, {"type": "Feature", "geometry": {"type": "Point", "coordinates": [-54.10508, -26.33884]}, "properties": {"nivel": "SOSPECHA", "detalle": "1 solo sensor (VIIRS_SNPP_NRT) | 2026-09-08 | brillo=327.68K | requiere confirmación", "distrito": "Ñacunday (aprox.)", "prioridad_institucional": "CRITICA", "coords": "-26.3388, -54.1051", "primera_vista": "2026-09-10", "generado": "2026-09-10T13:11:07.379114+00:00"}}, {"type": "Feature", "geometry": {"type": "Point", "coordinates": [-54.10776, -26.3385]}, "properties": {"nivel": "SOSPECHA", "detalle": "1 solo sensor (VIIRS_SNPP_NRT) | 2026-09-08 | brillo=327.58K | requiere confirmación", "distrito": "Ñacunday (aprox.)", "prioridad_institucional": "CRITICA", "coords": "-26.3385, -54.1078", "primera_vista": "2026-09-10", "generado": "2026-09-10T13:11:07.379124+00:00"}}, {"type": "Feature", "geometry": {"type": "Point", "coordinates": [-54.61733, -26.26373]}, "properties": {"nivel": "SOSPECHA", "detalle": "1 solo sensor (VIIRS_SNPP_NRT) | 2026-09-08 | brillo=331.18K | requiere confirmación", "distrito": "Ñacunday (aprox.)", "prioridad_institucional": "CRITICA", "coords": "-26.2637, -54.6173", "primera_vista": "2026-09-10", "generado": "2026-09-10T13:11:07.379134+00:00"}}, {"type": "Feature", "geometry": {"type": "Point", "coordinates": [-54.6179, -26.25998]}, "properties": {"nivel": "SOSPECHA", "detalle": "1 solo sensor (VIIRS_SNPP_NRT) | 2026-09-08 | brillo=333.16K | requiere confirmación", "distrito": "Ñacunday (aprox.)", "prioridad_institucional": "CRITICA", "coords": "-26.26, -54.6179", "primera_vista": "2026-09-10", "generado": "2026-09-10T13:11:07.379142+00:00"}}, {"type": "Feature", "geometry": {"type": "Point", "coordinates": [-55.85892, -26.24682]}, "properties": {"nivel": "ALTA", "detalle": "FUEGO CONFIRMADO por 2 sensores (NOAA20+SNPP) | 2026-09-08 | brillo=333.63K", "distrito": "Santa Rosa del Monday (aprox.)", "prioridad_institucional": "CRITICA", "coords": "-26.2468, -55.8589", "primera_vista": "2026-09-10", "generado": "2026-09-10T13:11:07.379151+00:00"}}, {"type": "Feature", "geometry": {"type": "Point", "coordinates": [-55.80297, -26.20702]}, "properties": {"nivel": "SOSPECHA", "detalle": "1 solo sensor (VIIRS_SNPP_NRT) | 2026-09-08 | brillo=330.82K | requiere confirmación", "distrito": "Santa Rosa del Monday (aprox.)", "prioridad_institucional": "CRITICA", "coords": "-26.207, -55.803", "primera_vista": "2026-09-10", "generado": "2026-09-10T13:11:07.379161+00:00"}}, {"type": "Feature", "geometry": {"type": "Point", "coordinates": [-55.8407, -26.18707]}, "properties": {"nivel": "ALTA", "detalle": "FUEGO CONFIRMADO por 2 sensores (NOAA20+SNPP) | 2026-09-08 | brillo=338.07K", "distrito": "Santa Rosa del Monday (aprox.)", "prioridad_institucional": "CRITICA", "coords": "-26.1871, -55.8407", "primera_vista": "2026-09-10", "generado": "2026-09-10T13:11:07.379170+00:00"}}, {"type": "Feature", "geometry": {"type": "Point", "coordinates": [-55.44855, -26.1833]}, "properties": {"nivel": "SOSPECHA", "detalle": "1 solo sensor (VIIRS_SNPP_NRT) | 2026-09-08 | brillo=332.48K | requiere confirmación", "distrito": "Santa Rosa del Monday (aprox.)", "prioridad_institucional": "CRITICA", "coords": "-26.1833, -55.4485", "primera_vista": "2026-09-10", "generado": "2026-09-10T13:11:07.379178+00:00"}}, {"type": "Feature", "geometry": {"type": "Point", "coordinates": [-55.79593, -26.17773]}, "properties": {"nivel": "SOSPECHA", "detalle": "1 solo sensor (VIIRS_SNPP_NRT) | 2026-09-08 | brillo=334.42K | requiere confirmación", "distrito": "Santa Rosa del Monday (aprox.)", "prioridad_institucional": "CRITICA", "coords": "-26.1777, -55.7959", "primera_vista": "2026-09-10", "generado": "2026-09-10T13:11:07.379188+00:00"}}, {"type": "Feature", "geometry": {"type": "Point", "coordinates": [-54.41133, -26.16408]}, "properties": {"nivel": "ALTA", "detalle": "FUEGO CONFIRMADO por 2 sensores (MODIS+SNPP) | 2026-09-08 | brillo=347.08K", "distrito": "Ñacunday (aprox.)", "prioridad_institucional": "CRITICA", "coords": "-26.1641, -54.4113", "primera_vista": "2026-09-10", "generado": "2026-09-10T13:11:07.379196+00:00"}}, {"type": "Feature", "geometry": {"type": "Point", "coordinates": [-54.41373, -26.16226]}, "properties": {"nivel": "SOSPECHA", "detalle": "1 solo sensor (VIIRS_SNPP_NRT) | 2026-09-08 | brillo=336.77K | requiere confirmación", "distrito": "Ñacunday (aprox.)", "prioridad_institucional": "CRITICA", "coords": "-26.1623, -54.4137", "primera_vista": "2026-09-10", "generado": "2026-09-10T13:11:07.379205+00:00"}}, {"type": "Feature", "geometry": {"type": "Point", "coordinates": [-54.40887, -26.16166]}, "properties": {"nivel": "SOSPECHA", "detalle": "1 solo sensor (VIIRS_SNPP_NRT) | 2026-09-08 | brillo=336.26K | requiere confirmación", "distrito": "Ñacunday (aprox.)", "prioridad_institucional": "CRITICA", "coords": "-26.1617, -54.4089", "primera_vista": "2026-09-10", "generado": "2026-09-10T13:11:07.379214+00:00"}}, {"type": "Feature", "geometry": {"type": "Point", "coordinates": [-54.41188, -26.16037]}, "properties": {"nivel": "SOSPECHA", "detalle": "1 solo sensor (VIIRS_SNPP_NRT) | 2026-09-08 | brillo=336.12K | requiere confirmación", "distrito": "Ñacunday (aprox.)", "prioridad_institucional": "CRITICA", "coords": "-26.1604, -54.4119", "primera_vista": "2026-09-10", "generado": "2026-09-10T13:11:07.379224+00:00"}}, {"type": "Feature", "geometry": {"type": "Point", "coordinates": [-55.31031, -25.00961]}, "properties": {"nivel": "SOSPECHA", "detalle": "1 solo sensor (VIIRS_NOAA20_NRT) | 2026-09-06 | brillo=301.83K | requiere confirmación", "distrito": "Dr. Raúl Peña (aprox.)", "prioridad_institucional": "MEDIA", "coords": "-25.0096, -55.3103", "primera_vista": "2026-09-10", "generado": "2026-09-10T13:11:07.379234+00:00"}}, {"type": "Feature", "geometry": {"type": "Point", "coordinates": [-55.30982, -25.00314]}, "properties": {"nivel": "SOSPECHA", "detalle": "1 solo sensor (VIIRS_NOAA20_NRT) | 2026-09-06 | brillo=295.93K | requiere confirmación", "distrito": "Dr. Raúl Peña (aprox.)", "prioridad_institucional": "MEDIA", "coords": "-25.0031, -55.3098", "primera_vista": "2026-09-10", "generado": "2026-09-10T13:11:07.379243+00:00"}}, {"type": "Feature", "geometry": {"type": "Point", "coordinates": [-54.31026, -26.98455]}, "properties": {"nivel": "SOSPECHA", "detalle": "1 solo sensor (VIIRS_NOAA20_NRT) | 2026-09-08 | brillo=334.92K | requiere confirmación", "distrito": "Ñacunday (aprox.)", "prioridad_institucional": "CRITICA", "coords": "-26.9845, -54.3103", "primera_vista": "2026-09-10", "generado": "2026-09-10T13:11:07.379253+00:00"}}, {"type": "Feature", "geometry": {"type": "Point", "coordinates": [-54.44705, -26.95985]}, "properties": {"nivel": "SOSPECHA", "detalle": "1 solo sensor (VIIRS_NOAA20_NRT) | 2026-09-08 | brillo=325.69K | requiere confirmación", "distrito": "Ñacunday (aprox.)", "prioridad_institucional": "CRITICA", "coords": "-26.9598, -54.447", "primera_vista": "2026-09-10", "generado": "2026-09-10T13:11:07.379262+00:00"}}, {"type": "Feature", "geometry": {"type": "Point", "coordinates": [-54.35675, -26.95311]}, "properties": {"nivel": "SOSPECHA", "detalle": "1 solo sensor (VIIRS_NOAA20_NRT) | 2026-09-08 | brillo=332.3K | requiere confirmación", "distrito": "Ñacunday (aprox.)", "prioridad_institucional": "CRITICA", "coords": "-26.9531, -54.3567", "primera_vista": "2026-09-10", "generado": "2026-09-10T13:11:07.379271+00:00"}}, {"type": "Feature", "geometry": {"type": "Point", "coordinates": [-54.49522, -26.89663]}, "properties": {"nivel": "SOSPECHA", "detalle": "1 solo sensor (VIIRS_NOAA20_NRT) | 2026-09-08 | brillo=330.89K | requiere confirmación", "distrito": "Ñacunday (aprox.)", "prioridad_institucional": "CRITICA", "coords": "-26.8966, -54.4952", "primera_vista": "2026-09-10", "generado": "2026-09-10T13:11:07.379279+00:00"}}, {"type": "Feature", "geometry": {"type": "Point", "coordinates": [-54.38768, -26.86742]}, "properties": {"nivel": "SOSPECHA", "detalle": "1 solo sensor (VIIRS_NOAA20_NRT) | 2026-09-08 | brillo=330.57K | requiere confirmación", "distrito": "Ñacunday (aprox.)", "prioridad_institucional": "CRITICA", "coords": "-26.8674, -54.3877", "primera_vista": "2026-09-10", "generado": "2026-09-10T13:11:07.380161+00:00"}}, {"type": "Feature", "geometry": {"type": "Point", "coordinates": [-54.32718, -26.86056]}, "properties": {"nivel": "SOSPECHA", "detalle": "1 solo sensor (VIIRS_NOAA20_NRT) | 2026-09-08 | brillo=332.12K | requiere confirmación", "distrito": "Ñacunday (aprox.)", "prioridad_institucional": "CRITICA", "coords": "-26.8606, -54.3272", "primera_vista": "2026-09-10", "generado": "2026-09-10T13:11:07.380180+00:00"}}, {"type": "Feature", "geometry": {"type": "Point", "coordinates": [-54.23536, -26.83384]}, "properties": {"nivel": "SOSPECHA", "detalle": "1 solo sensor (VIIRS_NOAA20_NRT) | 2026-09-08 | brillo=326.65K | requiere confirmación", "distrito": "Ñacunday (aprox.)", "prioridad_institucional": "CRITICA", "coords": "-26.8338, -54.2354", "primera_vista": "2026-09-10", "generado": "2026-09-10T13:11:07.380191+00:00"}}, {"type": "Feature", "geometry": {"type": "Point", "coordinates": [-54.31055, -26.80971]}, "properties": {"nivel": "SOSPECHA", "detalle": "1 solo sensor (VIIRS_NOAA20_NRT) | 2026-09-08 | brillo=336.84K | requiere confirmación", "distrito": "Ñacunday (aprox.)", "prioridad_institucional": "CRITICA", "coords": "-26.8097, -54.3105", "primera_vista": "2026-09-10", "generado": "2026-09-10T13:11:07.380201+00:00"}}, {"type": "Feature", "geometry": {"type": "Point", "coordinates": [-54.28831, -26.78791]}, "properties": {"nivel": "SOSPECHA", "detalle": "1 solo sensor (VIIRS_NOAA20_NRT) | 2026-09-08 | brillo=334.03K | requiere confirmación", "distrito": "Ñacunday (aprox.)", "prioridad_institucional": "CRITICA", "coords": "-26.7879, -54.2883", "primera_vista": "2026-09-10", "generado": "2026-09-10T13:11:07.380210+00:00"}}, {"type": "Feature", "geometry": {"type": "Point", "coordinates": [-54.92359, -26.73019]}, "properties": {"nivel": "SOSPECHA", "detalle": "1 solo sensor (VIIRS_NOAA20_NRT) | 2026-09-08 | brillo=336.54K | requiere confirmación", "distrito": "Ñacunday (aprox.)", "prioridad_institucional": "CRITICA", "coords": "-26.7302, -54.9236", "primera_vista": "2026-09-10", "generado": "2026-09-10T13:11:07.380220+00:00"}}, {"type": "Feature", "geometry": {"type": "Point", "coordinates": [-54.11456, -26.4346]}, "properties": {"nivel": "SOSPECHA", "detalle": "1 solo sensor (VIIRS_NOAA20_NRT) | 2026-09-08 | brillo=334.19K | requiere confirmación", "distrito": "Ñacunday (aprox.)", "prioridad_institucional": "CRITICA", "coords": "-26.4346, -54.1146", "primera_vista": "2026-09-10", "generado": "2026-09-10T13:11:07.380229+00:00"}}, {"type": "Feature", "geometry": {"type": "Point", "coordinates": [-55.80038, -26.40701]}, "properties": {"nivel": "SOSPECHA", "detalle": "1 solo sensor (VIIRS_NOAA20_NRT) | 2026-09-08 | brillo=339.93K | requiere confirmación", "distrito": "Santa Rosa del Monday (aprox.)", "prioridad_institucional": "CRITICA", "coords": "-26.407, -55.8004", "primera_vista": "2026-09-10", "generado": "2026-09-10T13:11:07.380238+00:00"}}, {"type": "Feature", "geometry": {"type": "Point", "coordinates": [-54.07547, -26.40595]}, "properties": {"nivel": "SOSPECHA", "detalle": "1 solo sensor (VIIRS_NOAA20_NRT) | 2026-09-08 | brillo=329.45K | requiere confirmación", "distrito": "Ñacunday (aprox.)", "prioridad_institucional": "CRITICA", "coords": "-26.406, -54.0755", "primera_vista": "2026-09-10", "generado": "2026-09-10T13:11:07.380247+00:00"}}, {"type": "Feature", "geometry": {"type": "Point", "coordinates": [-55.80102, -26.40366]}, "properties": {"nivel": "SOSPECHA", "detalle": "1 solo sensor (VIIRS_NOAA20_NRT) | 2026-09-08 | brillo=329.34K | requiere confirmación", "distrito": "Santa Rosa del Monday (aprox.)", "prioridad_institucional": "CRITICA", "coords": "-26.4037, -55.801", "primera_vista": "2026-09-10", "generado": "2026-09-10T13:11:07.380256+00:00"}}, {"type": "Feature", "geometry": {"type": "Point", "coordinates": [-54.11007, -26.39378]}, "properties": {"nivel": "SOSPECHA", "detalle": "1 solo sensor (VIIRS_NOAA20_NRT) | 2026-09-08 | brillo=331.82K | requiere confirmación", "distrito": "Ñacunday (aprox.)", "prioridad_institucional": "CRITICA", "coords": "-26.3938, -54.1101", "primera_vista": "2026-09-10", "generado": "2026-09-10T13:11:07.380265+00:00"}}, {"type": "Feature", "geometry": {"type": "Point", "coordinates": [-54.08703, -26.37517]}, "properties": {"nivel": "SOSPECHA", "detalle": "1 solo sensor (VIIRS_NOAA20_NRT) | 2026-09-08 | brillo=331.06K | requiere confirmación", "distrito": "Ñacunday (aprox.)", "prioridad_institucional": "CRITICA", "coords": "-26.3752, -54.087", "primera_vista": "2026-09-10", "generado": "2026-09-10T13:11:07.380274+00:00"}}, {"type": "Feature", "geometry": {"type": "Point", "coordinates": [-54.08787, -26.29897]}, "properties": {"nivel": "SOSPECHA", "detalle": "1 solo sensor (VIIRS_NOAA20_NRT) | 2026-09-08 | brillo=330.65K | requiere confirmación", "distrito": "Ñacunday (aprox.)", "prioridad_institucional": "CRITICA", "coords": "-26.299, -54.0879", "primera_vista": "2026-09-10", "generado": "2026-09-10T13:11:07.380282+00:00"}}, {"type": "Feature", "geometry": {"type": "Point", "coordinates": [-55.95023, -26.22389]}, "properties": {"nivel": "SOSPECHA", "detalle": "1 solo sensor (VIIRS_NOAA20_NRT) | 2026-09-08 | brillo=343.44K | requiere confirmación", "distrito": "Santa Rosa del Monday (aprox.)", "prioridad_institucional": "CRITICA", "coords": "-26.2239, -55.9502", "primera_vista": "2026-09-10", "generado": "2026-09-10T13:11:07.380291+00:00"}}, {"type": "Feature", "geometry": {"type": "Point", "coordinates": [-55.8876, -26.15167]}, "properties": {"nivel": "SOSPECHA", "detalle": "1 solo sensor (VIIRS_NOAA20_NRT) | 2026-09-08 | brillo=336.63K | requiere confirmación", "distrito": "Santa Rosa del Monday (aprox.)", "prioridad_institucional": "CRITICA", "coords": "-26.1517, -55.8876", "primera_vista": "2026-09-10", "generado": "2026-09-10T13:11:07.380300+00:00"}}, {"type": "Feature", "geometry": {"type": "Point", "coordinates": [-54.46222, -26.08365]}, "properties": {"nivel": "SOSPECHA", "detalle": "1 solo sensor (VIIRS_NOAA20_NRT) | 2026-09-08 | brillo=325.61K | requiere confirmación", "distrito": "Domingo Martínez de Irala (aprox.)", "prioridad_institucional": "CRITICA", "coords": "-26.0836, -54.4622", "primera_vista": "2026-09-10", "generado": "2026-09-10T13:11:07.380309+00:00"}}, {"type": "Feature", "geometry": {"type": "Point", "coordinates": [-54.45796, -26.08292]}, "properties": {"nivel": "SOSPECHA", "detalle": "1 solo sensor (VIIRS_NOAA20_NRT) | 2026-09-08 | brillo=334.6K | requiere confirmación", "distrito": "Domingo Martínez de Irala (aprox.)", "prioridad_institucional": "CRITICA", "coords": "-26.0829, -54.458", "primera_vista": "2026-09-10", "generado": "2026-09-10T13:11:07.380319+00:00"}}, {"type": "Feature", "geometry": {"type": "Point", "coordinates": [-55.84143, -26.077]}, "properties": {"nivel": "SOSPECHA", "detalle": "1 solo sensor (VIIRS_NOAA20_NRT) | 2026-09-08 | brillo=329.89K | requiere confirmación", "distrito": "Naranjal (aprox.)", "prioridad_institucional": "ALTA", "coords": "-26.077, -55.8414", "primera_vista": "2026-09-10", "generado": "2026-09-10T13:11:07.380328+00:00"}}, {"type": "Feature", "geometry": {"type": "Point", "coordinates": [-54.51419, -26.04573]}, "properties": {"nivel": "SOSPECHA", "detalle": "1 solo sensor (VIIRS_NOAA20_NRT) | 2026-09-08 | brillo=338.75K | requiere confirmación", "distrito": "Domingo Martínez de Irala (aprox.)", "prioridad_institucional": "CRITICA", "coords": "-26.0457, -54.5142", "primera_vista": "2026-09-10", "generado": "2026-09-10T13:11:07.380338+00:00"}}, {"type": "Feature", "geometry": {"type": "Point", "coordinates": [-55.45272, -26.03467]}, "properties": {"nivel": "ALTA", "detalle": "FUEGO CONFIRMADO por 2 sensores (MODIS+NOAA20) | 2026-09-08 | brillo=330.58K", "distrito": "Santa Rosa del Monday (aprox.)", "prioridad_institucional": "CRITICA", "coords": "-26.0347, -55.4527", "primera_vista": "2026-09-10", "generado": "2026-09-10T13:11:07.380347+00:00"}}, {"type": "Feature", "geometry": {"type": "Point", "coordinates": [-55.44939, -26.03063]}, "properties": {"nivel": "SOSPECHA", "detalle": "1 solo sensor (VIIRS_NOAA20_NRT) | 2026-09-08 | brillo=330.92K | requiere confirmación", "distrito": "Santa Rosa del Monday (aprox.)", "prioridad_institucional": "CRITICA", "coords": "-26.0306, -55.4494", "primera_vista": "2026-09-10", "generado": "2026-09-10T13:11:07.380356+00:00"}}, {"type": "Feature", "geometry": {"type": "Point", "coordinates": [-55.80223, -25.2569]}, "properties": {"nivel": "SOSPECHA", "detalle": "1 solo sensor (VIIRS_NOAA20_NRT) | 2026-09-08 | brillo=337.18K | requiere confirmación", "distrito": "Dr. Raúl Peña (aprox.)", "prioridad_institucional": "MEDIA", "coords": "-25.2569, -55.8022", "primera_vista": "2026-09-10", "generado": "2026-09-10T13:11:07.380366+00:00"}}, {"type": "Feature", "geometry": {"type": "Point", "coordinates": [-54.71353, -26.99901]}, "properties": {"nivel": "SOSPECHA", "detalle": "1 solo sensor (MODIS_NRT) | 2026-09-06 | brillo=308.72K | requiere confirmación", "distrito": "Ñacunday (aprox.)", "prioridad_institucional": "CRITICA", "coords": "-26.999, -54.7135", "primera_vista": "2026-09-10", "generado": "2026-09-10T13:11:07.380375+00:00"}}, {"type": "Feature", "geometry": {"type": "Point", "coordinates": [-54.2456, -26.80434]}, "properties": {"nivel": "SOSPECHA", "detalle": "1 solo sensor (MODIS_NRT) | 2026-09-06 | brillo=319.02K | requiere confirmación", "distrito": "Ñacunday (aprox.)", "prioridad_institucional": "CRITICA", "coords": "-26.8043, -54.2456", "primera_vista": "2026-09-10", "generado": "2026-09-10T13:11:07.380384+00:00"}}, {"type": "Feature", "geometry": {"type": "Point", "coordinates": [-55.87011, -25.82304]}, "properties": {"nivel": "SOSPECHA", "detalle": "1 solo sensor (MODIS_NRT) | 2026-09-06 | brillo=300.57K | requiere confirmación", "distrito": "San Cristóbal (aprox.)", "prioridad_institucional": "CRITICA", "coords": "-25.823, -55.8701", "primera_vista": "2026-09-10", "generado": "2026-09-10T13:11:07.380395+00:00"}}, {"type": "Feature", "geometry": {"type": "Point", "coordinates": [-55.65336, -25.75772]}, "properties": {"nivel": "SOSPECHA", "detalle": "1 solo sensor (MODIS_NRT) | 2026-09-06 | brillo=305.49K | requiere confirmación", "distrito": "San Cristóbal (aprox.)", "prioridad_institucional": "CRITICA", "coords": "-25.7577, -55.6534", "primera_vista": "2026-09-10", "generado": "2026-09-10T13:11:07.380404+00:00"}}, {"type": "Feature", "geometry": {"type": "Point", "coordinates": [-55.7576, -25.61457]}, "properties": {"nivel": "SOSPECHA", "detalle": "1 solo sensor (MODIS_NRT) | 2026-09-06 | brillo=301.58K | requiere confirmación", "distrito": "Dr. Raúl Peña (aprox.)", "prioridad_institucional": "MEDIA", "coords": "-25.6146, -55.7576", "primera_vista": "2026-09-10", "generado": "2026-09-10T13:11:07.380414+00:00"}}, {"type": "Feature", "geometry": {"type": "Point", "coordinates": [-55.84643, -25.37881]}, "properties": {"nivel": "SOSPECHA", "detalle": "1 solo sensor (MODIS_NRT) | 2026-09-06 | brillo=303.3K | requiere confirmación", "distrito": "Dr. Raúl Peña (aprox.)", "prioridad_institucional": "MEDIA", "coords": "-25.3788, -55.8464", "primera_vista": "2026-09-10", "generado": "2026-09-10T13:11:07.380423+00:00"}}, {"type": "Feature", "geometry": {"type": "Point", "coordinates": [-55.5747, -25.37837]}, "properties": {"nivel": "SOSPECHA", "detalle": "1 solo sensor (MODIS_NRT) | 2026-09-06 | brillo=303.21K | requiere confirmación", "distrito": "Dr. Raúl Peña (aprox.)", "prioridad_institucional": "MEDIA", "coords": "-25.3784, -55.5747", "primera_vista": "2026-09-10", "generado": "2026-09-10T13:11:07.380431+00:00"}}, {"type": "Feature", "geometry": {"type": "Point", "coordinates": [-55.83615, -25.37741]}, "properties": {"nivel": "SOSPECHA", "detalle": "1 solo sensor (MODIS_NRT) | 2026-09-06 | brillo=312.19K | requiere confirmación", "distrito": "Dr. Raúl Peña (aprox.)", "prioridad_institucional": "MEDIA", "coords": "-25.3774, -55.8362", "primera_vista": "2026-09-10", "generado": "2026-09-10T13:11:07.380441+00:00"}}, {"type": "Feature", "geometry": {"type": "Point", "coordinates": [-55.98156, -25.21308]}, "properties": {"nivel": "SOSPECHA", "detalle": "1 solo sensor (MODIS_NRT) | 2026-09-06 | brillo=301.46K | requiere confirmación", "distrito": "Dr. Raúl Peña (aprox.)", "prioridad_institucional": "MEDIA", "coords": "-25.2131, -55.9816", "primera_vista": "2026-09-10", "generado": "2026-09-10T13:11:07.380449+00:00"}}, {"type": "Feature", "geometry": {"type": "Point", "coordinates": [-55.98308, -25.20398]}, "properties": {"nivel": "SOSPECHA", "detalle": "1 solo sensor (MODIS_NRT) | 2026-09-06 | brillo=302.23K | requiere confirmación", "distrito": "Dr. Raúl Peña (aprox.)", "prioridad_institucional": "MEDIA", "coords": "-25.204, -55.9831", "primera_vista": "2026-09-10", "generado": "2026-09-10T13:11:07.380457+00:00"}}, {"type": "Feature", "geometry": {"type": "Point", "coordinates": [-55.67664, -25.06962]}, "properties": {"nivel": "SOSPECHA", "detalle": "1 solo sensor (MODIS_NRT) | 2026-09-06 | brillo=302.72K | requiere confirmación", "distrito": "Dr. Raúl Peña (aprox.)", "prioridad_institucional": "MEDIA", "coords": "-25.0696, -55.6766", "primera_vista": "2026-09-10", "generado": "2026-09-10T13:11:07.380466+00:00"}}, {"type": "Feature", "geometry": {"type": "Point", "coordinates": [-55.66655, -25.06823]}, "properties": {"nivel": "SOSPECHA", "detalle": "1 solo sensor (MODIS_NRT) | 2026-09-06 | brillo=302.49K | requiere confirmación", "distrito": "Dr. Raúl Peña (aprox.)", "prioridad_institucional": "MEDIA", "coords": "-25.0682, -55.6666", "primera_vista": "2026-09-10", "generado": "2026-09-10T13:11:07.380475+00:00"}}, {"type": "Feature", "geometry": {"type": "Point", "coordinates": [-55.97884, -25.04722]}, "properties": {"nivel": "SOSPECHA", "detalle": "1 solo sensor (MODIS_NRT) | 2026-09-06 | brillo=307.4K | requiere confirmación", "distrito": "Dr. Raúl Peña (aprox.)", "prioridad_institucional": "MEDIA", "coords": "-25.0472, -55.9788", "primera_vista": "2026-09-10", "generado": "2026-09-10T13:11:07.380485+00:00"}}, {"type": "Feature", "geometry": {"type": "Point", "coordinates": [-55.98033, -25.03814]}, "properties": {"nivel": "SOSPECHA", "detalle": "1 solo sensor (MODIS_NRT) | 2026-09-06 | brillo=304.28K | requiere confirmación", "distrito": "Dr. Raúl Peña (aprox.)", "prioridad_institucional": "MEDIA", "coords": "-25.0381, -55.9803", "primera_vista": "2026-09-10", "generado": "2026-09-10T13:11:07.380493+00:00"}}, {"type": "Feature", "geometry": {"type": "Point", "coordinates": [-54.72889, -26.53506]}, "properties": {"nivel": "SOSPECHA", "detalle": "1 solo sensor (MODIS_NRT) | 2026-09-08 | brillo=305.72K | requiere confirmación", "distrito": "Ñacunday (aprox.)", "prioridad_institucional": "CRITICA", "coords": "-26.5351, -54.7289", "primera_vista": "2026-09-10", "generado": "2026-09-10T13:11:07.380515+00:00"}}, {"type": "Feature", "geometry": {"type": "Point", "coordinates": [-54.73416, -26.53213]}, "properties": {"nivel": "SOSPECHA", "detalle": "1 solo sensor (MODIS_NRT) | 2026-09-08 | brillo=305.66K | requiere confirmación", "distrito": "Ñacunday (aprox.)", "prioridad_institucional": "CRITICA", "coords": "-26.5321, -54.7342", "primera_vista": "2026-09-10", "generado": "2026-09-10T13:11:07.380528+00:00"}}, {"type": "Feature", "geometry": {"type": "Point", "coordinates": [-54.56914, -25.0515]}, "properties": {"nivel": "ALTA", "detalle": "FUEGO CONFIRMADO por 2 sensores (NOAA20+SNPP) | 2026-09-04 | brillo=307.34K", "distrito": "Los Cedrales (aprox.)", "prioridad_institucional": "CRITICA", "coords": "-25.0515, -54.5691", "primera_vista": "2026-09-08", "generado": "2026-09-08T15:13:17.655269+00:00"}}, {"type": "Feature", "geometry": {"type": "Point", "coordinates": [-55.11519, -26.79016]}, "properties": {"nivel": "SOSPECHA", "detalle": "1 solo sensor (VIIRS_SNPP_NRT) | 2026-09-04 | brillo=335.63K | requiere confirmación", "distrito": "Ñacunday (aprox.)", "prioridad_institucional": "CRITICA", "coords": "-26.7902, -55.1152", "primera_vista": "2026-09-08", "generado": "2026-09-08T15:13:17.655331+00:00"}}, {"type": "Feature", "geometry": {"type": "Point", "coordinates": [-55.62143, -25.4541]}, "properties": {"nivel": "ALTA", "detalle": "FUEGO CONFIRMADO por 2 sensores (NOAA20+SNPP) | 2026-09-04 | brillo=354.26K", "distrito": "Dr. Raúl Peña (aprox.)", "prioridad_institucional": "MEDIA", "coords": "-25.4541, -55.6214", "primera_vista": "2026-09-08", "generado": "2026-09-08T15:13:17.655365+00:00"}}, {"type": "Feature", "geometry": {"type": "Point", "coordinates": [-55.69523, -25.0229]}, "properties": {"nivel": "SOSPECHA", "detalle": "1 solo sensor (VIIRS_SNPP_NRT) | 2026-09-04 | brillo=332.24K | requiere confirmación", "distrito": "Dr. Raúl Peña (aprox.)", "prioridad_institucional": "MEDIA", "coords": "-25.0229, -55.6952", "primera_vista": "2026-09-08", "generado": "2026-09-08T15:13:17.655395+00:00"}}, {"type": "Feature", "geometry": {"type": "Point", "coordinates": [-55.69086, -25.02254]}, "properties": {"nivel": "SOSPECHA", "detalle": "1 solo sensor (VIIRS_SNPP_NRT) | 2026-09-04 | brillo=350.89K | requiere confirmación", "distrito": "Dr. Raúl Peña (aprox.)", "prioridad_institucional": "MEDIA", "coords": "-25.0225, -55.6909", "primera_vista": "2026-09-08", "generado": "2026-09-08T15:13:17.655424+00:00"}}, {"type": "Feature", "geometry": {"type": "Point", "coordinates": [-55.63065, -25.40594]}, "properties": {"nivel": "SOSPECHA", "detalle": "1 solo sensor (VIIRS_SNPP_NRT) | 2026-09-04 | brillo=336.89K | requiere confirmación", "distrito": "Dr. Raúl Peña (aprox.)", "prioridad_institucional": "MEDIA", "coords": "-25.4059, -55.6307", "primera_vista": "2026-09-08", "generado": "2026-09-08T15:13:17.655503+00:00"}}, {"type": "Feature", "geometry": {"type": "Point", "coordinates": [-55.97126, -26.76746]}, "properties": {"nivel": "SOSPECHA", "detalle": "1 solo sensor (VIIRS_NOAA20_NRT) | 2026-09-04 | brillo=333.83K | requiere confirmación", "distrito": "Santa Rosa del Monday (aprox.)", "prioridad_institucional": "CRITICA", "coords": "-26.7675, -55.9713", "primera_vista": "2026-09-08", "generado": "2026-09-08T15:13:17.677372+00:00"}}, {"type": "Feature", "geometry": {"type": "Point", "coordinates": [-54.89346, -25.28247]}, "properties": {"nivel": "SOSPECHA", "detalle": "1 solo sensor (VIIRS_NOAA20_NRT) | 2026-09-04 | brillo=335.34K | requiere confirmación", "distrito": "Los Cedrales (aprox.)", "prioridad_institucional": "CRITICA", "coords": "-25.2825, -54.8935", "primera_vista": "2026-09-08", "generado": "2026-09-08T15:13:17.677454+00:00"}}, {"type": "Feature", "geometry": {"type": "Point", "coordinates": [-54.89634, -25.28109]}, "properties": {"nivel": "SOSPECHA", "detalle": "1 solo sensor (VIIRS_NOAA20_NRT) | 2026-09-04 | brillo=331.72K | requiere confirmación", "distrito": "Los Cedrales (aprox.)", "prioridad_institucional": "CRITICA", "coords": "-25.2811, -54.8963", "primera_vista": "2026-09-08", "generado": "2026-09-08T15:13:17.677486+00:00"}}, {"type": "Feature", "geometry": {"type": "Point", "coordinates": [-55.21441, -25.02981]}, "properties": {"nivel": "SOSPECHA", "detalle": "1 solo sensor (VIIRS_NOAA20_NRT) | 2026-09-04 | brillo=333.95K | requiere confirmación", "distrito": "Dr. Raúl Peña (aprox.)", "prioridad_institucional": "MEDIA", "coords": "-25.0298, -55.2144", "primera_vista": "2026-09-08", "generado": "2026-09-08T15:13:17.677515+00:00"}}, {"type": "Feature", "geometry": {"type": "Point", "coordinates": [-54.39818, -26.16351]}, "properties": {"nivel": "SOSPECHA", "detalle": "1 solo sensor (MODIS_NRT) | 2026-09-08 | brillo=304.93K | requiere confirmación", "distrito": "Ñacunday (aprox.)", "prioridad_institucional": "CRITICA", "coords": "-26.1635, -54.3982", "primera_vista": "2026-09-08", "generado": "2026-09-08T15:13:17.678215+00:00"}}, {"type": "Feature", "geometry": {"type": "Point", "coordinates": [-55.83475, -26.54087]}, "properties": {"nivel": "ALTA", "detalle": "FUEGO CONFIRMADO por 2 sensores (NOAA20+SNPP) | 2026-09-03 | brillo=330.48K", "distrito": "Santa Rosa del Monday (aprox.)", "prioridad_institucional": "MEDIA", "coords": "-26.5409, -55.8347", "primera_vista": "2026-09-07", "generado": "2026-09-07T14:20:37.184625+00:00"}}, {"type": "Feature", "geometry": {"type": "Point", "coordinates": [-55.82997, -26.54038]}, "properties": {"nivel": "SOSPECHA", "detalle": "1 solo sensor (VIIRS_SNPP_NRT) | 2026-09-03 | brillo=337.54K | requiere confirmación", "distrito": "Santa Rosa del Monday (aprox.)", "prioridad_institucional": "MEDIA", "coords": "-26.5404, -55.83", "primera_vista": "2026-09-07", "generado": "2026-09-07T14:20:37.184669+00:00"}}, {"type": "Feature", "geometry": {"type": "Point", "coordinates": [-54.76401, -26.40788]}, "properties": {"nivel": "SOSPECHA", "detalle": "1 solo sensor (VIIRS_SNPP_NRT) | 2026-09-03 | brillo=328.76K | requiere confirmación", "distrito": "Ñacunday (aprox.)", "prioridad_institucional": "MEDIA", "coords": "-26.4079, -54.764", "primera_vista": "2026-09-07", "generado": "2026-09-07T14:20:37.184704+00:00"}}, {"type": "Feature", "geometry": {"type": "Point", "coordinates": [-55.61878, -26.27008]}, "properties": {"nivel": "SOSPECHA", "detalle": "1 solo sensor (VIIRS_SNPP_NRT) | 2026-09-03 | brillo=336.59K | requiere confirmación", "distrito": "Santa Rosa del Monday (aprox.)", "prioridad_institucional": "MEDIA", "coords": "-26.2701, -55.6188", "primera_vista": "2026-09-07", "generado": "2026-09-07T14:20:37.184724+00:00"}}, {"type": "Feature", "geometry": {"type": "Point", "coordinates": [-54.41177, -26.1771]}, "properties": {"nivel": "ALTA", "detalle": "FUEGO CONFIRMADO por 2 sensores (NOAA20+SNPP) | 2026-09-03 | brillo=349.35K", "distrito": "Ñacunday (aprox.)", "prioridad_institucional": "MEDIA", "coords": "-26.1771, -54.4118", "primera_vista": "2026-09-07", "generado": "2026-09-07T14:20:37.184743+00:00"}}, {"type": "Feature", "geometry": {"type": "Point", "coordinates": [-54.41224, -26.17305]}, "properties": {"nivel": "SOSPECHA", "detalle": "1 solo sensor (VIIRS_SNPP_NRT) | 2026-09-03 | brillo=348.3K | requiere confirmación", "distrito": "Ñacunday (aprox.)", "prioridad_institucional": "MEDIA", "coords": "-26.173, -54.4122", "primera_vista": "2026-09-07", "generado": "2026-09-07T14:20:37.184763+00:00"}}, {"type": "Feature", "geometry": {"type": "Point", "coordinates": [-55.72337, -26.16589]}, "properties": {"nivel": "SOSPECHA", "detalle": "1 solo sensor (VIIRS_SNPP_NRT) | 2026-09-03 | brillo=341.1K | requiere confirmación", "distrito": "Santa Rosa del Monday (aprox.)", "prioridad_institucional": "MEDIA", "coords": "-26.1659, -55.7234", "primera_vista": "2026-09-07", "generado": "2026-09-07T14:20:37.184781+00:00"}}, {"type": "Feature", "geometry": {"type": "Point", "coordinates": [-55.72384, -26.16151]}, "properties": {"nivel": "SOSPECHA", "detalle": "1 solo sensor (VIIRS_SNPP_NRT) | 2026-09-03 | brillo=330.0K | requiere confirmación", "distrito": "Santa Rosa del Monday (aprox.)", "prioridad_institucional": "MEDIA", "coords": "-26.1615, -55.7238", "primera_vista": "2026-09-07", "generado": "2026-09-07T14:20:37.184803+00:00"}}, {"type": "Feature", "geometry": {"type": "Point", "coordinates": [-55.75853, -26.14751]}, "properties": {"nivel": "ALTA", "detalle": "FUEGO CONFIRMADO por 2 sensores (NOAA20+SNPP) | 2026-09-03 | brillo=342.33K", "distrito": "Santa Rosa del Monday (aprox.)", "prioridad_institucional": "MEDIA", "coords": "-26.1475, -55.7585", "primera_vista": "2026-09-07", "generado": "2026-09-07T14:20:37.184850+00:00"}}, {"type": "Feature", "geometry": {"type": "Point", "coordinates": [-54.6604, -25.72983]}, "properties": {"nivel": "SOSPECHA", "detalle": "1 solo sensor (VIIRS_SNPP_NRT) | 2026-09-03 | brillo=338.1K | requiere confirmación", "distrito": "Domingo Martínez de Irala (aprox.)", "prioridad_institucional": "MEDIA", "coords": "-25.7298, -54.6604", "primera_vista": "2026-09-07", "generado": "2026-09-07T14:20:37.184899+00:00"}}, {"type": "Feature", "geometry": {"type": "Point", "coordinates": [-55.96339, -25.06978]}, "properties": {"nivel": "ALTA", "detalle": "FUEGO CONFIRMADO por 2 sensores (NOAA20+SNPP) | 2026-09-03 | brillo=341.19K", "distrito": "Dr. Raúl Peña (aprox.)", "prioridad_institucional": "MEDIA", "coords": "-25.0698, -55.9634", "primera_vista": "2026-09-07", "generado": "2026-09-07T14:20:37.184946+00:00"}}, {"type": "Feature", "geometry": {"type": "Point", "coordinates": [-55.86755, -26.77734]}, "properties": {"nivel": "SOSPECHA", "detalle": "1 solo sensor (VIIRS_NOAA20_NRT) | 2026-09-03 | brillo=334.08K | requiere confirmación", "distrito": "Ñacunday (aprox.)", "prioridad_institucional": "MEDIA", "coords": "-26.7773, -55.8676", "primera_vista": "2026-09-07", "generado": "2026-09-07T14:20:37.185604+00:00"}}, {"type": "Feature", "geometry": {"type": "Point", "coordinates": [-55.32325, -25.66318]}, "properties": {"nivel": "SOSPECHA", "detalle": "1 solo sensor (VIIRS_NOAA20_NRT) | 2026-09-03 | brillo=331.72K | requiere confirmación", "distrito": "San Cristóbal (aprox.)", "prioridad_institucional": "MEDIA", "coords": "-25.6632, -55.3233", "primera_vista": "2026-09-07", "generado": "2026-09-07T14:20:37.185627+00:00"}}, {"type": "Feature", "geometry": {"type": "Point", "coordinates": [-55.91581, -25.24186]}, "properties": {"nivel": "SOSPECHA", "detalle": "1 solo sensor (VIIRS_NOAA20_NRT) | 2026-09-03 | brillo=330.61K | requiere confirmación", "distrito": "Dr. Raúl Peña (aprox.)", "prioridad_institucional": "MEDIA", "coords": "-25.2419, -55.9158", "primera_vista": "2026-09-07", "generado": "2026-09-07T14:20:37.185656+00:00"}}, {"type": "Feature", "geometry": {"type": "Point", "coordinates": [-55.912, -25.24128]}, "properties": {"nivel": "SOSPECHA", "detalle": "1 solo sensor (VIIRS_NOAA20_NRT) | 2026-09-03 | brillo=331.15K | requiere confirmación", "distrito": "Dr. Raúl Peña (aprox.)", "prioridad_institucional": "MEDIA", "coords": "-25.2413, -55.912", "primera_vista": "2026-09-07", "generado": "2026-09-07T14:20:37.185678+00:00"}}, {"type": "Feature", "geometry": {"type": "Point", "coordinates": [-55.53151, -25.07453]}, "properties": {"nivel": "SOSPECHA", "detalle": "1 solo sensor (VIIRS_NOAA20_NRT) | 2026-09-03 | brillo=346.16K | requiere confirmación", "distrito": "Dr. Raúl Peña (aprox.)", "prioridad_institucional": "MEDIA", "coords": "-25.0745, -55.5315", "primera_vista": "2026-09-07", "generado": "2026-09-07T14:20:37.185699+00:00"}}, {"type": "Feature", "geometry": {"type": "Point", "coordinates": [-55.76867, -25.95851]}, "properties": {"nivel": "SOSPECHA", "detalle": "1 solo sensor (MODIS_NRT) | 2026-09-03 | brillo=300.51K | requiere confirmación", "distrito": "Naranjal (aprox.)", "prioridad_institucional": "MEDIA", "coords": "-25.9585, -55.7687", "primera_vista": "2026-09-07", "generado": "2026-09-07T14:20:37.185849+00:00"}}, {"type": "Feature", "geometry": {"type": "Point", "coordinates": [-55.51538, -25.46416]}, "properties": {"nivel": "SOSPECHA", "detalle": "1 solo sensor (MODIS_NRT) | 2026-09-03 | brillo=311.63K | requiere confirmación", "distrito": "Dr. Raúl Peña (aprox.)", "prioridad_institucional": "MEDIA", "coords": "-25.4642, -55.5154", "primera_vista": "2026-09-07", "generado": "2026-09-07T14:20:37.185870+00:00"}}, {"type": "Feature", "geometry": {"type": "Point", "coordinates": [-55.84015, -25.12505]}, "properties": {"nivel": "SOSPECHA", "detalle": "1 solo sensor (MODIS_NRT) | 2026-09-03 | brillo=327.66K | requiere confirmación", "distrito": "Dr. Raúl Peña (aprox.)", "prioridad_institucional": "MEDIA", "coords": "-25.1251, -55.8402", "primera_vista": "2026-09-07", "generado": "2026-09-07T14:20:37.185894+00:00"}}, {"type": "Feature", "geometry": {"type": "Point", "coordinates": [-55.85199, -25.12465]}, "properties": {"nivel": "SOSPECHA", "detalle": "1 solo sensor (MODIS_NRT) | 2026-09-03 | brillo=315.54K | requiere confirmación", "distrito": "Dr. Raúl Peña (aprox.)", "prioridad_institucional": "MEDIA", "coords": "-25.1246, -55.852", "primera_vista": "2026-09-07", "generado": "2026-09-07T14:20:37.185915+00:00"}}, {"type": "Feature", "geometry": {"type": "Point", "coordinates": [-55.83539, -25.12284]}, "properties": {"nivel": "SOSPECHA", "detalle": "1 solo sensor (MODIS_NRT) | 2026-09-03 | brillo=327.28K | requiere confirmación", "distrito": "Dr. Raúl Peña (aprox.)", "prioridad_institucional": "MEDIA", "coords": "-25.1228, -55.8354", "primera_vista": "2026-09-07", "generado": "2026-09-07T14:20:37.185937+00:00"}}, {"type": "Feature", "geometry": {"type": "Point", "coordinates": [-54.23576, -26.80293]}, "properties": {"nivel": "SOSPECHA", "detalle": "1 solo sensor (MODIS_NRT) | 2026-09-06 | brillo=306.38K | requiere confirmación", "distrito": "Ñacunday (aprox.)", "prioridad_institucional": "MEDIA", "coords": "-26.8029, -54.2358", "primera_vista": "2026-09-07", "generado": "2026-09-07T14:20:37.186020+00:00"}}, {"type": "Feature", "geometry": {"type": "Point", "coordinates": [-54.22231, -26.79407]}, "properties": {"nivel": "SOSPECHA", "detalle": "1 solo sensor (MODIS_NRT) | 2026-09-07 | brillo=324.72K | requiere confirmación", "distrito": "Ñacunday (aprox.)", "prioridad_institucional": "MEDIA", "coords": "-26.7941, -54.2223", "primera_vista": "2026-09-07", "generado": "2026-09-07T14:20:37.186589+00:00"}}, {"type": "Feature", "geometry": {"type": "Point", "coordinates": [-54.28502, -26.73547]}, "properties": {"nivel": "ALTA", "detalle": "FUEGO CONFIRMADO por 2 sensores (NOAA20+SNPP) | 2026-09-02 | brillo=333.43K", "distrito": "Ñacunday (aprox.)", "coords": "-26.7355, -54.285", "primera_vista": "2026-09-05", "generado": "2026-09-05T14:35:00.670342+00:00"}}, {"type": "Feature", "geometry": {"type": "Point", "coordinates": [-55.15517, -26.20822]}, "properties": {"nivel": "ALTA", "detalle": "FUEGO CONFIRMADO por 2 sensores (NOAA20+SNPP) | 2026-09-02 | brillo=339.04K", "distrito": "Ñacunday (aprox.)", "coords": "-26.2082, -55.1552", "primera_vista": "2026-09-05", "generado": "2026-09-05T14:35:00.670439+00:00"}}]}