{"type": "FeatureCollection", "features": [{"type": "Feature", "geometry": {"type": "Point", "coordinates": [-54.8, -25.85]}, "properties": {"distrito": "Domingo Martínez de Irala", "ha_14d": 0.1, "ha_alta": 0.1, "ultima": "2026-08-07", "prioridad": "CRITICA", "cruce_fuego": false, "fuente": "GFW Integrated Alerts (oficial)", "latencia_dias": 27}}, {"type": "Feature", "geometry": {"type": "Point", "coordinates": [-54.95, -25.57]}, "properties": {"distrito": "Los Cedrales", "ha_14d": 13.2, "ha_alta": 13.2, "ultima": "2026-08-07", "prioridad": "CRITICA", "cruce_fuego": true, "fuente": "GFW Integrated Alerts (oficial)", "latencia_dias": 27}}, {"type": "Feature", "geometry": {"type": "Point", "coordinates": [-54.9, -26.15]}, "properties": {"distrito": "Ñacunday", "ha_14d": 72.9, "ha_alta": 72.9, "ultima": "2026-08-12", "prioridad": "CRITICA", "cruce_fuego": true, "fuente": "GFW Integrated Alerts (oficial)", "latencia_dias": 27}}, {"type": "Feature", "geometry": {"type": "Point", "coordinates": [-55.18, -25.83]}, "properties": {"distrito": "Naranjal", "ha_14d": 88.7, "ha_alta": 88.7, "ultima": "2026-08-12", "prioridad": "ALTA", "cruce_fuego": false, "fuente": "GFW Integrated Alerts (oficial)", "latencia_dias": 27}}, {"type": "Feature", "geometry": {"type": "Point", "coordinates": [-55.25, -25.63]}, "properties": {"distrito": "San Cristóbal", "ha_14d": 258.9, "ha_alta": 258.9, "ultima": "2026-08-14", "prioridad": "CRITICA", "cruce_fuego": false, "fuente": "GFW Integrated Alerts (oficial)", "latencia_dias": 27}}, {"type": "Feature", "geometry": {"type": "Point", "coordinates": [-55.07, -25.66]}, "properties": {"distrito": "Santa Rita", "ha_14d": 62.1, "ha_alta": 62.1, "ultima": "2026-08-12", "prioridad": "ALTA", "cruce_fuego": true, "fuente": "GFW Integrated Alerts (oficial)", "latencia_dias": 27}}, {"type": "Feature", "geometry": {"type": "Point", "coordinates": [-55.15, -25.9]}, "properties": {"distrito": "Santa Rosa del Monday", "ha_14d": 61.5, "ha_alta": 61.5, "ultima": "2026-08-12", "prioridad": "CRITICA", "cruce_fuego": true, "fuente": "GFW Integrated Alerts (oficial)", "latencia_dias": 27}}]}